jumping_motion
nRows=251
nColumns=24
inDegrees=yes
endheader
time	pelvis_tilt	pelvis_list	pelvis_rotation	pelvis_tx	pelvis_ty	pelvis_tz	hip_flexion_r	hip_adduction_r	hip_rotation_r	knee_angle_r	ankle_angle_r	subtalar_angle_r	mtp_angle_r	hip_flexion_l	hip_adduction_l	hip_rotation_l	knee_angle_l	ankle_angle_l	subtalar_angle_l	mtp_angle_l	lumbar_extension	lumbar_bending	lumbar_rotation
0.000000	0.000000	0.000000	0.000000	0.000000	0.930000	0.000000	0.000000	0.000000	0.000000	0.000000	0.000000	0.000000	0.000000	0.000000	0.000000	0.000000	0.000000	0.000000	0.000000	0.000000	0.000000	0.000000	0.000000
0.010000	0.000000	0.000000	0.000000	0.000000	0.930000	0.000000	0.000000	0.000000	0.000000	0.000000	0.000000	0.000000	0.000000	0.000000	0.000000	0.000000	0.000000	0.000000	0.000000	0.000000	0.000000	0.000000	0.000000
0.020000	0.000000	0.000000	0.000000	0.000000	0.930000	0.000000	0.000000	0.000000	0.000000	0.000000	0.000000	0.000000	0.000000	0.000000	0.000000	0.000000	0.000000	0.000000	0.000000	0.000000	0.000000	0.000000	0.000000
0.030000	0.000000	0.000000	0.000000	0.000000	0.930000	0.000000	0.000000	0.000000	0.000000	0.000000	0.000000	0.000000	0.000000	0.000000	0.000000	0.000000	0.000000	0.000000	0.000000	0.000000	0.000000	0.000000	0.000000
0.040000	0.000000	0.000000	0.000000	0.000000	0.930000	0.000000	0.000000	0.000000	0.000000	0.000000	0.000000	0.000000	0.000000	0.000000	0.000000	0.000000	0.000000	0.000000	0.000000	0.000000	0.000000	0.000000	0.000000
0.050000	0.000000	0.000000	0.000000	0.000000	0.930000	0.000000	0.000000	0.000000	0.000000	0.000000	0.000000	0.000000	0.000000	0.000000	0.000000	0.000000	0.000000	0.000000	0.000000	0.000000	0.000000	0.000000	0.000000
0.060000	0.000000	0.000000	0.000000	0.000000	0.930000	0.000000	0.000000	0.000000	0.000000	0.000000	0.000000	0.000000	0.000000	0.000000	0.000000	0.000000	0.000000	0.000000	0.000000	0.000000	0.000000	0.000000	0.000000
0.070000	0.000000	0.000000	0.000000	0.000000	0.930000	0.000000	0.000000	0.000000	0.000000	0.000000	0.000000	0.000000	0.000000	0.000000	0.000000	0.000000	0.000000	0.000000	0.000000	0.000000	0.000000	0.000000	0.000000
0.080000	0.000000	0.000000	0.000000	0.000000	0.930000	0.000000	0.000000	0.000000	0.000000	0.000000	0.000000	0.000000	0.000000	0.000000	0.000000	0.000000	0.000000	0.000000	0.000000	0.000000	0.000000	0.000000	0.000000
0.090000	0.000000	0.000000	0.000000	0.000000	0.930000	0.000000	0.000000	0.000000	0.000000	0.000000	0.000000	0.000000	0.000000	0.000000	0.000000	0.000000	0.000000	0.000000	0.000000	0.000000	0.000000	0.000000	0.000000
0.100000	0.000000	0.000000	0.000000	0.000000	0.930000	0.000000	0.000000	0.000000	0.000000	0.000000	0.000000	0.000000	0.000000	0.000000	0.000000	0.000000	0.000000	0.000000	0.000000	0.000000	0.000000	0.000000	0.000000
0.110000	0.000000	0.000000	0.000000	0.000000	0.930000	0.000000	0.000000	0.000000	0.000000	0.000000	0.000000	0.000000	0.000000	0.000000	0.000000	0.000000	0.000000	0.000000	0.000000	0.000000	0.000000	0.000000	0.000000
0.120000	0.000000	0.000000	0.000000	0.000000	0.930000	0.000000	0.000000	0.000000	0.000000	0.000000	0.000000	0.000000	0.000000	0.000000	0.000000	0.000000	0.000000	0.000000	0.000000	0.000000	0.000000	0.000000	0.000000
0.130000	0.000000	0.000000	0.000000	0.000000	0.930000	0.000000	0.000000	0.000000	0.000000	0.000000	0.000000	0.000000	0.000000	0.000000	0.000000	0.000000	0.000000	0.000000	0.000000	0.000000	0.000000	0.000000	0.000000
0.140000	0.000000	0.000000	0.000000	0.000000	0.930000	0.000000	0.000000	0.000000	0.000000	0.000000	0.000000	0.000000	0.000000	0.000000	0.000000	0.000000	0.000000	0.000000	0.000000	0.000000	0.000000	0.000000	0.000000
0.150000	0.000000	0.000000	0.000000	0.000000	0.930000	0.000000	0.000000	0.000000	0.000000	0.000000	0.000000	0.000000	0.000000	0.000000	0.000000	0.000000	0.000000	0.000000	0.000000	0.000000	0.000000	0.000000	0.000000
0.160000	0.000000	0.000000	0.000000	0.000000	0.930000	0.000000	0.000000	0.000000	0.000000	0.000000	0.000000	0.000000	0.000000	0.000000	0.000000	0.000000	0.000000	0.000000	0.000000	0.000000	0.000000	0.000000	0.000000
0.170000	0.000000	0.000000	0.000000	0.000000	0.930000	0.000000	0.000000	0.000000	0.000000	0.000000	0.000000	0.000000	0.000000	0.000000	0.000000	0.000000	0.000000	0.000000	0.000000	0.000000	0.000000	0.000000	0.000000
0.180000	0.000000	0.000000	0.000000	0.000000	0.930000	0.000000	0.000000	0.000000	0.000000	0.000000	0.000000	0.000000	0.000000	0.000000	0.000000	0.000000	0.000000	0.000000	0.000000	0.000000	0.000000	0.000000	0.000000
0.190000	0.000000	0.000000	0.000000	0.000000	0.930000	0.000000	0.000000	0.000000	0.000000	0.000000	0.000000	0.000000	0.000000	0.000000	0.000000	0.000000	0.000000	0.000000	0.000000	0.000000	0.000000	0.000000	0.000000
0.200000	0.000000	0.000000	0.000000	0.000000	0.930000	0.000000	0.000000	0.000000	0.000000	0.000000	0.000000	0.000000	0.000000	0.000000	0.000000	0.000000	0.000000	0.000000	0.000000	0.000000	0.000000	0.000000	0.000000
0.210000	0.000000	0.000000	0.000000	0.000000	0.930000	0.000000	0.000000	0.000000	0.000000	0.000000	0.000000	0.000000	0.000000	0.000000	0.000000	0.000000	0.000000	0.000000	0.000000	0.000000	0.000000	0.000000	0.000000
0.220000	0.000000	0.000000	0.000000	0.000000	0.930000	0.000000	0.000000	0.000000	0.000000	0.000000	0.000000	0.000000	0.000000	0.000000	0.000000	0.000000	0.000000	0.000000	0.000000	0.000000	0.000000	0.000000	0.000000
0.230000	0.000000	0.000000	0.000000	0.000000	0.930000	0.000000	0.000000	0.000000	0.000000	0.000000	0.000000	0.000000	0.000000	0.000000	0.000000	0.000000	0.000000	0.000000	0.000000	0.000000	0.000000	0.000000	0.000000
0.240000	0.000000	0.000000	0.000000	0.000000	0.930000	0.000000	0.000000	0.000000	0.000000	0.000000	0.000000	0.000000	0.000000	0.000000	0.000000	0.000000	0.000000	0.000000	0.000000	0.000000	0.000000	0.000000	0.000000
0.250000	0.000000	0.000000	0.000000	0.000000	0.930000	0.000000	0.000000	0.000000	0.000000	0.000000	0.000000	0.000000	0.000000	0.000000	0.000000	0.000000	0.000000	0.000000	0.000000	0.000000	0.000000	0.000000	0.000000
0.260000	0.000000	0.000000	0.000000	0.000000	0.930000	0.000000	0.000000	0.000000	0.000000	0.000000	0.000000	0.000000	0.000000	0.000000	0.000000	0.000000	0.000000	0.000000	0.000000	0.000000	0.000000	0.000000	0.000000
0.270000	0.000000	0.000000	0.000000	0.000000	0.930000	0.000000	0.000000	0.000000	0.000000	0.000000	0.000000	0.000000	0.000000	0.000000	0.000000	0.000000	0.000000	0.000000	0.000000	0.000000	0.000000	0.000000	0.000000
0.280000	0.000000	0.000000	0.000000	0.000000	0.930000	0.000000	0.000000	0.000000	0.000000	0.000000	0.000000	0.000000	0.000000	0.000000	0.000000	0.000000	0.000000	0.000000	0.000000	0.000000	0.000000	0.000000	0.000000
0.290000	0.000000	0.000000	0.000000	0.000000	0.930000	0.000000	0.000000	0.000000	0.000000	0.000000	0.000000	0.000000	0.000000	0.000000	0.000000	0.000000	0.000000	0.000000	0.000000	0.000000	0.000000	0.000000	0.000000
0.300000	0.000000	0.000000	0.000000	0.000000	0.930000	0.000000	0.000000	0.000000	0.000000	0.000000	0.000000	0.000000	0.000000	0.000000	0.000000	0.000000	0.000000	0.000000	0.000000	0.000000	0.000000	0.000000	0.000000
0.310000	0.000000	0.000000	0.000000	0.000000	0.930000	0.000000	0.000000	0.000000	0.000000	0.000000	0.000000	0.000000	0.000000	0.000000	0.000000	0.000000	0.000000	0.000000	0.000000	0.000000	0.000000	0.000000	0.000000
0.320000	0.000000	0.000000	0.000000	0.000000	0.930000	0.000000	0.000000	0.000000	0.000000	0.000000	0.000000	0.000000	0.000000	0.000000	0.000000	0.000000	0.000000	0.000000	0.000000	0.000000	0.000000	0.000000	0.000000
0.330000	0.000000	0.000000	0.000000	0.000000	0.930000	0.000000	0.000000	0.000000	0.000000	0.000000	0.000000	0.000000	0.000000	0.000000	0.000000	0.000000	0.000000	0.000000	0.000000	0.000000	0.000000	0.000000	0.000000
0.340000	0.000000	0.000000	0.000000	0.000000	0.930000	0.000000	0.000000	0.000000	0.000000	0.000000	0.000000	0.000000	0.000000	0.000000	0.000000	0.000000	0.000000	0.000000	0.000000	0.000000	0.000000	0.000000	0.000000
0.350000	0.000000	0.000000	0.000000	0.000000	0.930000	0.000000	0.000000	0.000000	0.000000	0.000000	0.000000	0.000000	0.000000	0.000000	0.000000	0.000000	0.000000	0.000000	0.000000	0.000000	0.000000	0.000000	0.000000
0.360000	0.000000	0.000000	0.000000	0.000000	0.930000	0.000000	0.000000	0.000000	0.000000	0.000000	0.000000	0.000000	0.000000	0.000000	0.000000	0.000000	0.000000	0.000000	0.000000	0.000000	0.000000	0.000000	0.000000
0.370000	0.000000	0.000000	0.000000	0.000000	0.930000	0.000000	0.000000	0.000000	0.000000	0.000000	0.000000	0.000000	0.000000	0.000000	0.000000	0.000000	0.000000	0.000000	0.000000	0.000000	0.000000	0.000000	0.000000
0.380000	0.000000	0.000000	0.000000	0.000000	0.930000	0.000000	0.000000	0.000000	0.000000	0.000000	0.000000	0.000000	0.000000	0.000000	0.000000	0.000000	0.000000	0.000000	0.000000	0.000000	0.000000	0.000000	0.000000
0.390000	0.000000	0.000000	0.000000	0.000000	0.930000	0.000000	0.000000	0.000000	0.000000	0.000000	0.000000	0.000000	0.000000	0.000000	0.000000	0.000000	0.000000	0.000000	0.000000	0.000000	0.000000	0.000000	0.000000
0.400000	0.000000	0.000000	0.000000	0.000000	0.930000	0.000000	0.000000	0.000000	0.000000	0.000000	0.000000	0.000000	0.000000	0.000000	0.000000	0.000000	0.000000	0.000000	0.000000	0.000000	0.000000	0.000000	0.000000
0.410000	0.000000	0.000000	0.000000	0.000000	0.930000	0.000000	0.000000	0.000000	0.000000	0.000000	0.000000	0.000000	0.000000	0.000000	0.000000	0.000000	0.000000	0.000000	0.000000	0.000000	0.000000	0.000000	0.000000
0.420000	0.000000	0.000000	0.000000	0.000000	0.930000	0.000000	0.000000	0.000000	0.000000	0.000000	0.000000	0.000000	0.000000	0.000000	0.000000	0.000000	0.000000	0.000000	0.000000	0.000000	0.000000	0.000000	0.000000
0.430000	0.000000	0.000000	0.000000	0.000000	0.930000	0.000000	0.000000	0.000000	0.000000	0.000000	0.000000	0.000000	0.000000	0.000000	0.000000	0.000000	0.000000	0.000000	0.000000	0.000000	0.000000	0.000000	0.000000
0.440000	0.000000	0.000000	0.000000	0.000000	0.930000	0.000000	0.000000	0.000000	0.000000	0.000000	0.000000	0.000000	0.000000	0.000000	0.000000	0.000000	0.000000	0.000000	0.000000	0.000000	0.000000	0.000000	0.000000
0.450000	0.000000	0.000000	0.000000	0.000000	0.930000	0.000000	0.000000	0.000000	0.000000	0.000000	0.000000	0.000000	0.000000	0.000000	0.000000	0.000000	0.000000	0.000000	0.000000	0.000000	0.000000	0.000000	0.000000
0.460000	0.000000	0.000000	0.000000	0.000000	0.930000	0.000000	0.000000	0.000000	0.000000	0.000000	0.000000	0.000000	0.000000	0.000000	0.000000	0.000000	0.000000	0.000000	0.000000	0.000000	0.000000	0.000000	0.000000
0.470000	0.000000	0.000000	0.000000	0.000000	0.930000	0.000000	0.000000	0.000000	0.000000	0.000000	0.000000	0.000000	0.000000	0.000000	0.000000	0.000000	0.000000	0.000000	0.000000	0.000000	0.000000	0.000000	0.000000
0.480000	0.000000	0.000000	0.000000	0.000000	0.930000	0.000000	0.000000	0.000000	0.000000	0.000000	0.000000	0.000000	0.000000	0.000000	0.000000	0.000000	0.000000	0.000000	0.000000	0.000000	0.000000	0.000000	0.000000
0.490000	0.000000	0.000000	0.000000	0.000000	0.930000	0.000000	0.000000	0.000000	0.000000	0.000000	0.000000	0.000000	0.000000	0.000000	0.000000	0.000000	0.000000	0.000000	0.000000	0.000000	0.000000	0.000000	0.000000
0.500000	0.000000	0.000000	0.000000	0.000000	0.930000	0.000000	0.000000	0.000000	0.000000	-0.000000	0.000000	0.000000	0.000000	0.000000	0.000000	0.000000	-0.000000	0.000000	0.000000	0.000000	-0.000000	0.000000	0.000000
0.510000	0.000000	0.000000	0.000000	0.000000	0.929751	0.000000	0.053280	0.000000	0.000000	-0.106560	0.053280	0.000000	0.000000	0.053280	0.000000	0.000000	-0.106560	0.053280	0.000000	0.000000	-0.035520	0.000000	0.000000
0.520000	0.000000	0.000000	0.000000	0.000000	0.929019	0.000000	0.210240	0.000000	0.000000	-0.420480	0.210240	0.000000	0.000000	0.210240	0.000000	0.000000	-0.420480	0.210240	0.000000	0.000000	-0.140160	0.000000	0.000000
0.530000	0.000000	0.000000	0.000000	0.000000	0.927823	0.000000	0.466560	0.000000	0.000000	-0.933120	0.466560	0.000000	0.000000	0.466560	0.000000	0.000000	-0.933120	0.466560	0.000000	0.000000	-0.311040	0.000000	0.000000
0.540000	0.000000	0.000000	0.000000	0.000000	0.926183	0.000000	0.817920	0.000000	0.000000	-1.635840	0.817920	0.000000	0.000000	0.817920	0.000000	0.000000	-1.635840	0.817920	0.000000	0.000000	-0.545280	0.000000	0.000000
0.550000	0.000000	0.000000	0.000000	0.000000	0.924120	0.000000	1.260000	0.000000	0.000000	-2.520000	1.260000	0.000000	0.000000	1.260000	0.000000	0.000000	-2.520000	1.260000	0.000000	0.000000	-0.840000	0.000000	0.000000
0.560000	0.000000	0.000000	0.000000	0.000000	0.921654	0.000000	1.788480	0.000000	0.000000	-3.576960	1.788480	0.000000	0.000000	1.788480	0.000000	0.000000	-3.576960	1.788480	0.000000	0.000000	-1.192320	0.000000	0.000000
0.570000	0.000000	0.000000	0.000000	0.000000	0.918804	0.000000	2.399040	0.000000	0.000000	-4.798080	2.399040	0.000000	0.000000	2.399040	0.000000	0.000000	-4.798080	2.399040	0.000000	0.000000	-1.599360	0.000000	0.000000
0.580000	0.000000	0.000000	0.000000	0.000000	0.915592	0.000000	3.087360	0.000000	0.000000	-6.174720	3.087360	0.000000	0.000000	3.087360	0.000000	0.000000	-6.174720	3.087360	0.000000	0.000000	-2.058240	0.000000	0.000000
0.590000	0.000000	0.000000	0.000000	0.000000	0.912037	0.000000	3.849120	0.000000	0.000000	-7.698240	3.849120	0.000000	0.000000	3.849120	0.000000	0.000000	-7.698240	3.849120	0.000000	0.000000	-2.566080	0.000000	0.000000
0.600000	0.000000	0.000000	0.000000	0.000000	0.908160	0.000000	4.680000	0.000000	0.000000	-9.360000	4.680000	0.000000	0.000000	4.680000	0.000000	0.000000	-9.360000	4.680000	0.000000	0.000000	-3.120000	0.000000	0.000000
0.610000	0.000000	0.000000	0.000000	0.000000	0.903980	0.000000	5.575680	0.000000	0.000000	-11.151360	5.575680	0.000000	0.000000	5.575680	0.000000	0.000000	-11.151360	5.575680	0.000000	0.000000	-3.717120	0.000000	0.000000
0.620000	0.000000	0.000000	0.000000	0.000000	0.899518	0.000000	6.531840	0.000000	0.000000	-13.063680	6.531840	0.000000	0.000000	6.531840	0.000000	0.000000	-13.063680	6.531840	0.000000	0.000000	-4.354560	0.000000	0.000000
0.630000	0.000000	0.000000	0.000000	0.000000	0.894794	0.000000	7.544160	0.000000	0.000000	-15.088320	7.544160	0.000000	0.000000	7.544160	0.000000	0.000000	-15.088320	7.544160	0.000000	0.000000	-5.029440	0.000000	0.000000
0.640000	0.000000	0.000000	0.000000	0.000000	0.889828	0.000000	8.608320	0.000000	0.000000	-17.216640	8.608320	0.000000	0.000000	8.608320	0.000000	0.000000	-17.216640	8.608320	0.000000	0.000000	-5.738880	0.000000	0.000000
0.650000	0.000000	0.000000	0.000000	0.000000	0.884640	0.000000	9.720000	0.000000	0.000000	-19.440000	9.720000	0.000000	0.000000	9.720000	0.000000	0.000000	-19.440000	9.720000	0.000000	0.000000	-6.480000	0.000000	0.000000
0.660000	0.000000	0.000000	0.000000	0.000000	0.879251	0.000000	10.874880	0.000000	0.000000	-21.749760	10.874880	0.000000	0.000000	10.874880	0.000000	0.000000	-21.749760	10.874880	0.000000	0.000000	-7.249920	0.000000	0.000000
0.670000	0.000000	0.000000	0.000000	0.000000	0.873680	0.000000	12.068640	0.000000	0.000000	-24.137280	12.068640	0.000000	0.000000	12.068640	0.000000	0.000000	-24.137280	12.068640	0.000000	0.000000	-8.045760	0.000000	0.000000
0.680000	0.000000	0.000000	0.000000	0.000000	0.867948	0.000000	13.296960	0.000000	0.000000	-26.593920	13.296960	0.000000	0.000000	13.296960	0.000000	0.000000	-26.593920	13.296960	0.000000	0.000000	-8.864640	0.000000	0.000000
0.690000	0.000000	0.000000	0.000000	0.000000	0.862074	0.000000	14.555520	0.000000	0.000000	-29.111040	14.555520	0.000000	0.000000	14.555520	0.000000	0.000000	-29.111040	14.555520	0.000000	0.000000	-9.703680	0.000000	0.000000
0.700000	0.000000	0.000000	0.000000	0.000000	0.856080	0.000000	15.840000	0.000000	0.000000	-31.680000	15.840000	0.000000	0.000000	15.840000	0.000000	0.000000	-31.680000	15.840000	0.000000	0.000000	-10.560000	0.000000	0.000000
0.710000	0.000000	0.000000	0.000000	0.000000	0.849985	0.000000	17.146080	0.000000	0.000000	-34.292160	17.146080	0.000000	0.000000	17.146080	0.000000	0.000000	-34.292160	17.146080	0.000000	0.000000	-11.430720	0.000000	0.000000
0.720000	0.000000	0.000000	0.000000	0.000000	0.843809	0.000000	18.469440	0.000000	0.000000	-36.938880	18.469440	0.000000	0.000000	18.469440	0.000000	0.000000	-36.938880	18.469440	0.000000	0.000000	-12.312960	0.000000	0.000000
0.730000	0.000000	0.000000	0.000000	0.000000	0.837573	0.000000	19.805760	0.000000	0.000000	-39.611520	19.805760	0.000000	0.000000	19.805760	0.000000	0.000000	-39.611520	19.805760	0.000000	0.000000	-13.203840	0.000000	0.000000
0.740000	0.000000	0.000000	0.000000	0.000000	0.831297	0.000000	21.150720	0.000000	0.000000	-42.301440	21.150720	0.000000	0.000000	21.150720	0.000000	0.000000	-42.301440	21.150720	0.000000	0.000000	-14.100480	0.000000	0.000000
0.750000	0.000000	0.000000	0.000000	0.000000	0.825000	0.000000	22.500000	0.000000	0.000000	-45.000000	22.500000	0.000000	0.000000	22.500000	0.000000	0.000000	-45.000000	22.500000	0.000000	0.000000	-15.000000	0.000000	0.000000
0.760000	0.000000	0.000000	0.000000	0.000000	0.818703	0.000000	23.849280	0.000000	0.000000	-47.698560	23.849280	0.000000	0.000000	23.849280	0.000000	0.000000	-47.698560	23.849280	0.000000	0.000000	-15.899520	0.000000	0.000000
0.770000	0.000000	0.000000	0.000000	0.000000	0.812427	0.000000	25.194240	0.000000	0.000000	-50.388480	25.194240	0.000000	0.000000	25.194240	0.000000	0.000000	-50.388480	25.194240	0.000000	0.000000	-16.796160	0.000000	0.000000
0.780000	0.000000	0.000000	0.000000	0.000000	0.806191	0.000000	26.530560	0.000000	0.000000	-53.061120	26.530560	0.000000	0.000000	26.530560	0.000000	0.000000	-53.061120	26.530560	0.000000	0.000000	-17.687040	0.000000	0.000000
0.790000	0.000000	0.000000	0.000000	0.000000	0.800015	0.000000	27.853920	0.000000	0.000000	-55.707840	27.853920	0.000000	0.000000	27.853920	0.000000	0.000000	-55.707840	27.853920	0.000000	0.000000	-18.569280	0.000000	0.000000
0.800000	0.000000	0.000000	0.000000	0.000000	0.793920	0.000000	29.160000	0.000000	0.000000	-58.320000	29.160000	0.000000	0.000000	29.160000	0.000000	0.000000	-58.320000	29.160000	0.000000	0.000000	-19.440000	0.000000	0.000000
0.810000	0.000000	0.000000	0.000000	0.000000	0.787926	0.000000	30.444480	0.000000	0.000000	-60.888960	30.444480	0.000000	0.000000	30.444480	0.000000	0.000000	-60.888960	30.444480	0.000000	0.000000	-20.296320	0.000000	0.000000
0.820000	0.000000	0.000000	0.000000	0.000000	0.782052	0.000000	31.703040	0.000000	0.000000	-63.406080	31.703040	0.000000	0.000000	31.703040	0.000000	0.000000	-63.406080	31.703040	0.000000	0.000000	-21.135360	0.000000	0.000000
0.830000	0.000000	0.000000	0.000000	0.000000	0.776320	0.000000	32.931360	0.000000	0.000000	-65.862720	32.931360	0.000000	0.000000	32.931360	0.000000	0.000000	-65.862720	32.931360	0.000000	0.000000	-21.954240	0.000000	0.000000
0.840000	0.000000	0.000000	0.000000	0.000000	0.770749	0.000000	34.125120	0.000000	0.000000	-68.250240	34.125120	0.000000	0.000000	34.125120	0.000000	0.000000	-68.250240	34.125120	0.000000	0.000000	-22.750080	0.000000	0.000000
0.850000	0.000000	0.000000	0.000000	0.000000	0.765360	0.000000	35.280000	0.000000	0.000000	-70.560000	35.280000	0.000000	0.000000	35.280000	0.000000	0.000000	-70.560000	35.280000	0.000000	0.000000	-23.520000	0.000000	0.000000
0.860000	0.000000	0.000000	0.000000	0.000000	0.760172	0.000000	36.391680	0.000000	0.000000	-72.783360	36.391680	0.000000	0.000000	36.391680	0.000000	0.000000	-72.783360	36.391680	0.000000	0.000000	-24.261120	0.000000	0.000000
0.870000	0.000000	0.000000	0.000000	0.000000	0.755206	0.000000	37.455840	0.000000	0.000000	-74.911680	37.455840	0.000000	0.000000	37.455840	0.000000	0.000000	-74.911680	37.455840	0.000000	0.000000	-24.970560	0.000000	0.000000
0.880000	0.000000	0.000000	0.000000	0.000000	0.750482	0.000000	38.468160	0.000000	0.000000	-76.936320	38.468160	0.000000	0.000000	38.468160	0.000000	0.000000	-76.936320	38.468160	0.000000	0.000000	-25.645440	0.000000	0.000000
0.890000	0.000000	0.000000	0.000000	0.000000	0.746020	0.000000	39.424320	0.000000	0.000000	-78.848640	39.424320	0.000000	0.000000	39.424320	0.000000	0.000000	-78.848640	39.424320	0.000000	0.000000	-26.282880	0.000000	0.000000
0.900000	0.000000	0.000000	0.000000	0.000000	0.741840	0.000000	40.320000	0.000000	0.000000	-80.640000	40.320000	0.000000	0.000000	40.320000	0.000000	0.000000	-80.640000	40.320000	0.000000	0.000000	-26.880000	0.000000	0.000000
0.910000	0.000000	0.000000	0.000000	0.000000	0.737963	0.000000	41.150880	0.000000	0.000000	-82.301760	41.150880	0.000000	0.000000	41.150880	0.000000	0.000000	-82.301760	41.150880	0.000000	0.000000	-27.433920	0.000000	0.000000
0.920000	0.000000	0.000000	0.000000	0.000000	0.734408	0.000000	41.912640	0.000000	0.000000	-83.825280	41.912640	0.000000	0.000000	41.912640	0.000000	0.000000	-83.825280	41.912640	0.000000	0.000000	-27.941760	0.000000	0.000000
0.930000	0.000000	0.000000	0.000000	0.000000	0.731196	0.000000	42.600960	0.000000	0.000000	-85.201920	42.600960	0.000000	0.000000	42.600960	0.000000	0.000000	-85.201920	42.600960	0.000000	0.000000	-28.400640	0.000000	0.000000
0.940000	0.000000	0.000000	0.000000	0.000000	0.728346	0.000000	43.211520	0.000000	0.000000	-86.423040	43.211520	0.000000	0.000000	43.211520	0.000000	0.000000	-86.423040	43.211520	0.000000	0.000000	-28.807680	0.000000	0.000000
0.950000	0.000000	0.000000	0.000000	0.000000	0.725880	0.000000	43.740000	0.000000	0.000000	-87.480000	43.740000	0.000000	0.000000	43.740000	0.000000	0.000000	-87.480000	43.740000	0.000000	0.000000	-29.160000	0.000000	0.000000
0.960000	0.000000	0.000000	0.000000	0.000000	0.723817	0.000000	44.182080	0.000000	0.000000	-88.364160	44.182080	0.000000	0.000000	44.182080	0.000000	0.000000	-88.364160	44.182080	0.000000	0.000000	-29.454720	0.000000	0.000000
0.970000	0.000000	0.000000	0.000000	0.000000	0.722177	0.000000	44.533440	0.000000	0.000000	-89.066880	44.533440	0.000000	0.000000	44.533440	0.000000	0.000000	-89.066880	44.533440	0.000000	0.000000	-29.688960	0.000000	0.000000
0.980000	0.000000	0.000000	0.000000	0.000000	0.720981	0.000000	44.789760	0.000000	0.000000	-89.579520	44.789760	0.000000	0.000000	44.789760	0.000000	0.000000	-89.579520	44.789760	0.000000	0.000000	-29.859840	0.000000	0.000000
0.990000	0.000000	0.000000	0.000000	0.000000	0.720249	0.000000	44.946720	0.000000	0.000000	-89.893440	44.946720	0.000000	0.000000	44.946720	0.000000	0.000000	-89.893440	44.946720	0.000000	0.000000	-29.964480	0.000000	0.000000
1.000000	0.000000	0.000000	0.000000	0.000000	0.720000	0.000000	45.000000	0.000000	0.000000	-90.000000	45.000000	0.000000	0.000000	45.000000	0.000000	0.000000	-90.000000	45.000000	0.000000	0.000000	-30.000000	0.000000	0.000000
1.010000	0.000000	0.000000	0.000000	0.000000	0.722392	0.000000	44.673750	0.000000	0.000000	-89.347500	44.456250	0.000000	0.000000	44.673750	0.000000	0.000000	-89.347500	44.456250	0.000000	0.000000	-29.782500	0.000000	0.000000
1.020000	0.000000	0.000000	0.000000	0.000000	0.729240	0.000000	43.740000	0.000000	0.000000	-87.480000	42.900000	0.000000	0.000000	43.740000	0.000000	0.000000	-87.480000	42.900000	0.000000	0.000000	-29.160000	0.000000	0.000000
1.030000	0.000000	0.000000	0.000000	0.000000	0.740047	0.000000	42.266250	0.000000	0.000000	-84.532500	40.443750	0.000000	0.000000	42.266250	0.000000	0.000000	-84.532500	40.443750	0.000000	0.000000	-28.177500	0.000000	0.000000
1.040000	0.000000	0.000000	0.000000	0.000000	0.754320	0.000000	40.320000	0.000000	0.000000	-80.640000	37.200000	0.000000	0.000000	40.320000	0.000000	0.000000	-80.640000	37.200000	0.000000	0.000000	-26.880000	0.000000	0.000000
1.050000	0.000000	0.000000	0.000000	0.000000	0.771563	0.000000	37.968750	0.000000	0.000000	-75.937500	33.281250	0.000000	0.000000	37.968750	0.000000	0.000000	-75.937500	33.281250	0.000000	0.000000	-25.312500	0.000000	0.000000
1.060000	0.000000	0.000000	0.000000	0.000000	0.791280	0.000000	35.280000	0.000000	0.000000	-70.560000	28.800000	0.000000	0.000000	35.280000	0.000000	0.000000	-70.560000	28.800000	0.000000	0.000000	-23.520000	0.000000	0.000000
1.070000	0.000000	0.000000	0.000000	0.000000	0.812978	0.000000	32.321250	0.000000	0.000000	-64.642500	23.868750	0.000000	0.000000	32.321250	0.000000	0.000000	-64.642500	23.868750	0.000000	0.000000	-21.547500	0.000000	0.000000
1.080000	0.000000	0.000000	0.000000	0.000000	0.836160	0.000000	29.160000	0.000000	0.000000	-58.320000	18.600000	0.000000	0.000000	29.160000	0.000000	0.000000	-58.320000	18.600000	0.000000	0.000000	-19.440000	0.000000	0.000000
1.090000	0.000000	0.000000	0.000000	0.000000	0.860333	0.000000	25.863750	0.000000	0.000000	-51.727500	13.106250	0.000000	0.000000	25.863750	0.000000	0.000000	-51.727500	13.106250	0.000000	0.000000	-17.242500	0.000000	0.000000
1.100000	0.000000	0.000000	0.000000	0.000000	0.885000	0.000000	22.500000	0.000000	0.000000	-45.000000	7.500000	0.000000	0.000000	22.500000	0.000000	0.000000	-45.000000	7.500000	0.000000	0.000000	-15.000000	0.000000	0.000000
1.110000	0.000000	0.000000	0.000000	0.000000	0.909668	0.000000	19.136250	0.000000	0.000000	-38.272500	1.893750	0.000000	0.000000	19.136250	0.000000	0.000000	-38.272500	1.893750	0.000000	0.000000	-12.757500	0.000000	0.000000
1.120000	0.000000	0.000000	0.000000	0.000000	0.933840	0.000000	15.840000	0.000000	0.000000	-31.680000	-3.600000	0.000000	0.000000	15.840000	0.000000	0.000000	-31.680000	-3.600000	0.000000	0.000000	-10.560000	0.000000	0.000000
1.130000	0.000000	0.000000	0.000000	0.000000	0.957023	0.000000	12.678750	0.000000	0.000000	-25.357500	-8.868750	0.000000	0.000000	12.678750	0.000000	0.000000	-25.357500	-8.868750	0.000000	0.000000	-8.452500	0.000000	0.000000
1.140000	0.000000	0.000000	0.000000	0.000000	0.978720	0.000000	9.720000	0.000000	0.000000	-19.440000	-13.800000	0.000000	0.000000	9.720000	0.000000	0.000000	-19.440000	-13.800000	0.000000	0.000000	-6.480000	0.000000	0.000000
1.150000	0.000000	0.000000	0.000000	0.000000	0.998438	0.000000	7.031250	0.000000	0.000000	-14.062500	-18.281250	0.000000	0.000000	7.031250	0.000000	0.000000	-14.062500	-18.281250	0.000000	0.000000	-4.687500	0.000000	0.000000
1.160000	0.000000	0.000000	0.000000	0.000000	1.015680	0.000000	4.680000	0.000000	0.000000	-9.360000	-22.200000	0.000000	0.000000	4.680000	0.000000	0.000000	-9.360000	-22.200000	0.000000	0.000000	-3.120000	0.000000	0.000000
1.170000	0.000000	0.000000	0.000000	0.000000	1.029953	0.000000	2.733750	0.000000	0.000000	-5.467500	-25.443750	0.000000	0.000000	2.733750	0.000000	0.000000	-5.467500	-25.443750	0.000000	0.000000	-1.822500	0.000000	0.000000
1.180000	0.000000	0.000000	0.000000	0.000000	1.040760	0.000000	1.260000	0.000000	0.000000	-2.520000	-27.900000	0.000000	0.000000	1.260000	0.000000	0.000000	-2.520000	-27.900000	0.000000	0.000000	-0.840000	0.000000	0.000000
1.190000	0.000000	0.000000	0.000000	0.000000	1.047608	0.000000	0.326250	0.000000	0.000000	-0.652500	-29.456250	0.000000	0.000000	0.326250	0.000000	0.000000	-0.652500	-29.456250	0.000000	0.000000	-0.217500	0.000000	0.000000
1.200000	0.000000	0.000000	0.000000	0.000000	1.050000	0.000000	0.000000	0.000000	0.000000	-0.000000	-30.000000	0.000000	0.000000	0.000000	0.000000	0.000000	-0.000000	-30.000000	0.000000	0.000000	0.000000	0.000000	0.000000
1.210000	0.000000	0.000000	0.000000	0.000000	1.053185	0.000000	0.254815	0.000000	0.000000	-0.509630	-30.000000	0.000000	0.000000	0.254815	0.000000	0.000000	-0.509630	-30.000000	0.000000	0.000000	0.000000	0.000000	0.000000
1.220000	0.000000	0.000000	0.000000	0.000000	1.062148	0.000000	0.971852	0.000000	0.000000	-1.943704	-30.000000	0.000000	0.000000	0.971852	0.000000	0.000000	-1.943704	-30.000000	0.000000	0.000000	0.000000	0.000000	0.000000
1.230000	0.000000	0.000000	0.000000	0.000000	1.076000	0.000000	2.080000	0.000000	0.000000	-4.160000	-30.000000	0.000000	0.000000	2.080000	0.000000	0.000000	-4.160000	-30.000000	0.000000	0.000000	0.000000	0.000000	0.000000
1.240000	0.000000	0.000000	0.000000	0.000000	1.093852	0.000000	3.508148	0.000000	0.000000	-7.016296	-30.000000	0.000000	0.000000	3.508148	0.000000	0.000000	-7.016296	-30.000000	0.000000	0.000000	0.000000	0.000000	0.000000
1.250000	0.000000	0.000000	0.000000	0.000000	1.114815	0.000000	5.185185	0.000000	0.000000	-10.370370	-30.000000	0.000000	0.000000	5.185185	0.000000	0.000000	-10.370370	-30.000000	0.000000	0.000000	0.000000	0.000000	0.000000
1.260000	0.000000	0.000000	0.000000	0.000000	1.138000	0.000000	7.040000	0.000000	0.000000	-14.080000	-30.000000	0.000000	0.000000	7.040000	0.000000	0.000000	-14.080000	-30.000000	0.000000	0.000000	0.000000	0.000000	0.000000
1.270000	0.000000	0.000000	0.000000	0.000000	1.162519	0.000000	9.001481	0.000000	0.000000	-18.002963	-30.000000	0.000000	0.000000	9.001481	0.000000	0.000000	-18.002963	-30.000000	0.000000	0.000000	0.000000	0.000000	0.000000
1.280000	0.000000	0.000000	0.000000	0.000000	1.187481	0.000000	10.998519	0.000000	0.000000	-21.997037	-30.000000	0.000000	0.000000	10.998519	0.000000	0.000000	-21.997037	-30.000000	0.000000	0.000000	0.000000	0.000000	0.000000
1.290000	0.000000	0.000000	0.000000	0.000000	1.212000	0.000000	12.960000	0.000000	0.000000	-25.920000	-30.000000	0.000000	0.000000	12.960000	0.000000	0.000000	-25.920000	-30.000000	0.000000	0.000000	0.000000	0.000000	0.000000
1.300000	0.000000	0.000000	0.000000	0.000000	1.235185	0.000000	14.814815	0.000000	0.000000	-29.629630	-30.000000	0.000000	0.000000	14.814815	0.000000	0.000000	-29.629630	-30.000000	0.000000	0.000000	0.000000	0.000000	0.000000
1.310000	0.000000	0.000000	0.000000	0.000000	1.256148	0.000000	16.491852	0.000000	0.000000	-32.983704	-30.000000	0.000000	0.000000	16.491852	0.000000	0.000000	-32.983704	-30.000000	0.000000	0.000000	0.000000	0.000000	0.000000
1.320000	0.000000	0.000000	0.000000	0.000000	1.274000	0.000000	17.920000	0.000000	0.000000	-35.840000	-30.000000	0.000000	0.000000	17.920000	0.000000	0.000000	-35.840000	-30.000000	0.000000	0.000000	0.000000	0.000000	0.000000
1.330000	0.000000	0.000000	0.000000	0.000000	1.287852	0.000000	19.028148	0.000000	0.000000	-38.056296	-30.000000	0.000000	0.000000	19.028148	0.000000	0.000000	-38.056296	-30.000000	0.000000	0.000000	0.000000	0.000000	0.000000
1.340000	0.000000	0.000000	0.000000	0.000000	1.296815	0.000000	19.745185	0.000000	0.000000	-39.490370	-30.000000	0.000000	0.000000	19.745185	0.000000	0.000000	-39.490370	-30.000000	0.000000	0.000000	0.000000	0.000000	0.000000
1.350000	0.000000	0.000000	0.000000	0.000000	1.300000	0.000000	20.000000	0.000000	0.000000	-40.000000	-30.000000	0.000000	0.000000	20.000000	0.000000	0.000000	-40.000000	-30.000000	0.000000	0.000000	0.000000	0.000000	0.000000
1.360000	0.000000	0.000000	0.000000	0.000000	1.296815	0.000000	19.745185	0.000000	0.000000	-39.490370	-30.000000	0.000000	0.000000	19.745185	0.000000	0.000000	-39.490370	-30.000000	0.000000	0.000000	0.000000	0.000000	0.000000
1.370000	0.000000	0.000000	0.000000	0.000000	1.287852	0.000000	19.028148	0.000000	0.000000	-38.056296	-30.000000	0.000000	0.000000	19.028148	0.000000	0.000000	-38.056296	-30.000000	0.000000	0.000000	0.000000	0.000000	0.000000
1.380000	0.000000	0.000000	0.000000	0.000000	1.274000	0.000000	17.920000	0.000000	0.000000	-35.840000	-30.000000	0.000000	0.000000	17.920000	0.000000	0.000000	-35.840000	-30.000000	0.000000	0.000000	0.000000	0.000000	0.000000
1.390000	0.000000	0.000000	0.000000	0.000000	1.256148	0.000000	16.491852	0.000000	0.000000	-32.983704	-30.000000	0.000000	0.000000	16.491852	0.000000	0.000000	-32.983704	-30.000000	0.000000	0.000000	0.000000	0.000000	0.000000
1.400000	0.000000	0.000000	0.000000	0.000000	1.235185	0.000000	14.814815	0.000000	0.000000	-29.629630	-30.000000	0.000000	0.000000	14.814815	0.000000	0.000000	-29.629630	-30.000000	0.000000	0.000000	0.000000	0.000000	0.000000
1.410000	0.000000	0.000000	0.000000	0.000000	1.212000	0.000000	12.960000	0.000000	0.000000	-25.920000	-30.000000	0.000000	0.000000	12.960000	0.000000	0.000000	-25.920000	-30.000000	0.000000	0.000000	0.000000	0.000000	0.000000
1.420000	0.000000	0.000000	0.000000	0.000000	1.187481	0.000000	10.998519	0.000000	0.000000	-21.997037	-30.000000	0.000000	0.000000	10.998519	0.000000	0.000000	-21.997037	-30.000000	0.000000	0.000000	0.000000	0.000000	0.000000
1.430000	0.000000	0.000000	0.000000	0.000000	1.162519	0.000000	9.001481	0.000000	0.000000	-18.002963	-30.000000	0.000000	0.000000	9.001481	0.000000	0.000000	-18.002963	-30.000000	0.000000	0.000000	0.000000	0.000000	0.000000
1.440000	0.000000	0.000000	0.000000	0.000000	1.138000	0.000000	7.040000	0.000000	0.000000	-14.080000	-30.000000	0.000000	0.000000	7.040000	0.000000	0.000000	-14.080000	-30.000000	0.000000	0.000000	0.000000	0.000000	0.000000
1.450000	0.000000	0.000000	0.000000	0.000000	1.114815	0.000000	5.185185	0.000000	0.000000	-10.370370	-30.000000	0.000000	0.000000	5.185185	0.000000	0.000000	-10.370370	-30.000000	0.000000	0.000000	0.000000	0.000000	0.000000
1.460000	0.000000	0.000000	0.000000	0.000000	1.093852	0.000000	3.508148	0.000000	0.000000	-7.016296	-30.000000	0.000000	0.000000	3.508148	0.000000	0.000000	-7.016296	-30.000000	0.000000	0.000000	0.000000	0.000000	0.000000
1.470000	0.000000	0.000000	0.000000	0.000000	1.076000	0.000000	2.080000	0.000000	0.000000	-4.160000	-30.000000	0.000000	0.000000	2.080000	0.000000	0.000000	-4.160000	-30.000000	0.000000	0.000000	0.000000	0.000000	0.000000
1.480000	0.000000	0.000000	0.000000	0.000000	1.062148	0.000000	0.971852	0.000000	0.000000	-1.943704	-30.000000	0.000000	0.000000	0.971852	0.000000	0.000000	-1.943704	-30.000000	0.000000	0.000000	0.000000	0.000000	0.000000
1.490000	0.000000	0.000000	0.000000	0.000000	1.053185	0.000000	0.254815	0.000000	0.000000	-0.509630	-30.000000	0.000000	0.000000	0.254815	0.000000	0.000000	-0.509630	-30.000000	0.000000	0.000000	0.000000	0.000000	0.000000
1.500000	0.000000	0.000000	0.000000	0.000000	1.050000	0.000000	0.000000	0.000000	0.000000	-0.000000	-30.000000	0.000000	0.000000	0.000000	0.000000	0.000000	-0.000000	-30.000000	0.000000	0.000000	-0.000000	0.000000	0.000000
1.510000	0.000000	0.000000	0.000000	0.000000	1.048924	0.000000	0.146667	0.000000	0.000000	-0.293333	-29.755556	0.000000	0.000000	0.146667	0.000000	0.000000	-0.293333	-29.755556	0.000000	0.000000	-0.097778	0.000000	0.000000
1.520000	0.000000	0.000000	0.000000	0.000000	1.045796	0.000000	0.573333	0.000000	0.000000	-1.146667	-29.044444	0.000000	0.000000	0.573333	0.000000	0.000000	-1.146667	-29.044444	0.000000	0.000000	-0.382222	0.000000	0.000000
1.530000	0.000000	0.000000	0.000000	0.000000	1.040760	0.000000	1.260000	0.000000	0.000000	-2.520000	-27.900000	0.000000	0.000000	1.260000	0.000000	0.000000	-2.520000	-27.900000	0.000000	0.000000	-0.840000	0.000000	0.000000
1.540000	0.000000	0.000000	0.000000	0.000000	1.033964	0.000000	2.186667	0.000000	0.000000	-4.373333	-26.355556	0.000000	0.000000	2.186667	0.000000	0.000000	-4.373333	-26.355556	0.000000	0.000000	-1.457778	0.000000	0.000000
1.550000	0.000000	0.000000	0.000000	0.000000	1.025556	0.000000	3.333333	0.000000	0.000000	-6.666667	-24.444444	0.000000	0.000000	3.333333	0.000000	0.000000	-6.666667	-24.444444	0.000000	0.000000	-2.222222	0.000000	0.000000
1.560000	0.000000	0.000000	0.000000	0.000000	1.015680	0.000000	4.680000	0.000000	0.000000	-9.360000	-22.200000	0.000000	0.000000	4.680000	0.000000	0.000000	-9.360000	-22.200000	0.000000	0.000000	-3.120000	0.000000	0.000000
1.570000	0.000000	0.000000	0.000000	0.000000	1.004484	0.000000	6.206667	0.000000	0.000000	-12.413333	-19.655556	0.000000	0.000000	6.206667	0.000000	0.000000	-12.413333	-19.655556	0.000000	0.000000	-4.137778	0.000000	0.000000
1.580000	0.000000	0.000000	0.000000	0.000000	0.992116	0.000000	7.893333	0.000000	0.000000	-15.786667	-16.844444	0.000000	0.000000	7.893333	0.000000	0.000000	-15.786667	-16.844444	0.000000	0.000000	-5.262222	0.000000	0.000000
1.590000	0.000000	0.000000	0.000000	0.000000	0.978720	0.000000	9.720000	0.000000	0.000000	-19.440000	-13.800000	0.000000	0.000000	9.720000	0.000000	0.000000	-19.440000	-13.800000	0.000000	0.000000	-6.480000	0.000000	0.000000
1.600000	0.000000	0.000000	0.000000	0.000000	0.964444	0.000000	11.666667	0.000000	0.000000	-23.333333	-10.555556	0.000000	0.000000	11.666667	0.000000	0.000000	-23.333333	-10.555556	0.000000	0.000000	-7.777778	0.000000	0.000000
1.610000	0.000000	0.000000	0.000000	0.000000	0.949436	0.000000	13.713333	0.000000	0.000000	-27.426667	-7.144444	0.000000	0.000000	13.713333	0.000000	0.000000	-27.426667	-7.144444	0.000000	0.000000	-9.142222	0.000000	0.000000
1.620000	0.000000	0.000000	0.000000	0.000000	0.933840	0.000000	15.840000	0.000000	0.000000	-31.680000	-3.600000	0.000000	0.000000	15.840000	0.000000	0.000000	-31.680000	-3.600000	0.000000	0.000000	-10.560000	0.000000	0.000000
1.630000	0.000000	0.000000	0.000000	0.000000	0.917804	0.000000	18.026667	0.000000	0.000000	-36.053333	0.044444	0.000000	0.000000	18.026667	0.000000	0.000000	-36.053333	0.044444	0.000000	0.000000	-12.017778	0.000000	0.000000
1.640000	0.000000	0.000000	0.000000	0.000000	0.901476	0.000000	20.253333	0.000000	0.000000	-40.506667	3.755556	0.000000	0.000000	20.253333	0.000000	0.000000	-40.506667	3.755556	0.000000	0.000000	-13.502222	0.000000	0.000000
1.650000	0.000000	0.000000	0.000000	0.000000	0.885000	0.000000	22.500000	0.000000	0.000000	-45.000000	7.500000	0.000000	0.000000	22.500000	0.000000	0.000000	-45.000000	7.500000	0.000000	0.000000	-15.000000	0.000000	0.000000
1.660000	0.000000	0.000000	0.000000	0.000000	0.868524	0.000000	24.746667	0.000000	0.000000	-49.493333	11.244444	0.000000	0.000000	24.746667	0.000000	0.000000	-49.493333	11.244444	0.000000	0.000000	-16.497778	0.000000	0.000000
1.670000	0.000000	0.000000	0.000000	0.000000	0.852196	0.000000	26.973333	0.000000	0.000000	-53.946667	14.955556	0.000000	0.000000	26.973333	0.000000	0.000000	-53.946667	14.955556	0.000000	0.000000	-17.982222	0.000000	0.000000
1.680000	0.000000	0.000000	0.000000	0.000000	0.836160	0.000000	29.160000	0.000000	0.000000	-58.320000	18.600000	0.000000	0.000000	29.160000	0.000000	0.000000	-58.320000	18.600000	0.000000	0.000000	-19.440000	0.000000	0.000000
1.690000	0.000000	0.000000	0.000000	0.000000	0.820564	0.000000	31.286667	0.000000	0.000000	-62.573333	22.144444	0.000000	0.000000	31.286667	0.000000	0.000000	-62.573333	22.144444	0.000000	0.000000	-20.857778	0.000000	0.000000
1.700000	0.000000	0.000000	0.000000	0.000000	0.805556	0.000000	33.333333	0.000000	0.000000	-66.666667	25.555556	0.000000	0.000000	33.333333	0.000000	0.000000	-66.666667	25.555556	0.000000	0.000000	-22.222222	0.000000	0.000000
1.710000	0.000000	0.000000	0.000000	0.000000	0.791280	0.000000	35.280000	0.000000	0.000000	-70.560000	28.800000	0.000000	0.000000	35.280000	0.000000	0.000000	-70.560000	28.800000	0.000000	0.000000	-23.520000	0.000000	0.000000
1.720000	0.000000	0.000000	0.000000	0.000000	0.777884	0.000000	37.106667	0.000000	0.000000	-74.213333	31.844444	0.000000	0.000000	37.106667	0.000000	0.000000	-74.213333	31.844444	0.000000	0.000000	-24.737778	0.000000	0.000000
1.730000	0.000000	0.000000	0.000000	0.000000	0.765516	0.000000	38.793333	0.000000	0.000000	-77.586667	34.655556	0.000000	0.000000	38.793333	0.000000	0.000000	-77.586667	34.655556	0.000000	0.000000	-25.862222	0.000000	0.000000
1.740000	0.000000	0.000000	0.000000	0.000000	0.754320	0.000000	40.320000	0.000000	0.000000	-80.640000	37.200000	0.000000	0.000000	40.320000	0.000000	0.000000	-80.640000	37.200000	0.000000	0.000000	-26.880000	0.000000	0.000000
1.750000	0.000000	0.000000	0.000000	0.000000	0.744444	0.000000	41.666667	0.000000	0.000000	-83.333333	39.444444	0.000000	0.000000	41.666667	0.000000	0.000000	-83.333333	39.444444	0.000000	0.000000	-27.777778	0.000000	0.000000
1.760000	0.000000	0.000000	0.000000	0.000000	0.736036	0.000000	42.813333	0.000000	0.000000	-85.626667	41.355556	0.000000	0.000000	42.813333	0.000000	0.000000	-85.626667	41.355556	0.000000	0.000000	-28.542222	0.000000	0.000000
1.770000	0.000000	0.000000	0.000000	0.000000	0.729240	0.000000	43.740000	0.000000	0.000000	-87.480000	42.900000	0.000000	0.000000	43.740000	0.000000	0.000000	-87.480000	42.900000	0.000000	0.000000	-29.160000	0.000000	0.000000
1.780000	0.000000	0.000000	0.000000	0.000000	0.724204	0.000000	44.426667	0.000000	0.000000	-88.853333	44.044444	0.000000	0.000000	44.426667	0.000000	0.000000	-88.853333	44.044444	0.000000	0.000000	-29.617778	0.000000	0.000000
1.790000	0.000000	0.000000	0.000000	0.000000	0.721076	0.000000	44.853333	0.000000	0.000000	-89.706667	44.755556	0.000000	0.000000	44.853333	0.000000	0.000000	-89.706667	44.755556	0.000000	0.000000	-29.902222	0.000000	0.000000
1.800000	0.000000	0.000000	0.000000	0.000000	0.720000	0.000000	45.000000	0.000000	0.000000	-90.000000	45.000000	0.000000	0.000000	45.000000	0.000000	0.000000	-90.000000	45.000000	0.000000	0.000000	-30.000000	0.000000	0.000000
1.810000	0.000000	0.000000	0.000000	0.000000	0.720127	0.000000	44.972711	0.000000	0.000000	-89.945423	44.972711	0.000000	0.000000	44.972711	0.000000	0.000000	-89.945423	44.972711	0.000000	0.000000	-29.981808	0.000000	0.000000
1.820000	0.000000	0.000000	0.000000	0.000000	0.720504	0.000000	44.891895	0.000000	0.000000	-89.783790	44.891895	0.000000	0.000000	44.891895	0.000000	0.000000	-89.783790	44.891895	0.000000	0.000000	-29.927930	0.000000	0.000000
1.830000	0.000000	0.000000	0.000000	0.000000	0.721124	0.000000	44.759125	0.000000	0.000000	-89.518251	44.759125	0.000000	0.000000	44.759125	0.000000	0.000000	-89.518251	44.759125	0.000000	0.000000	-29.839417	0.000000	0.000000
1.840000	0.000000	0.000000	0.000000	0.000000	0.721979	0.000000	44.575977	0.000000	0.000000	-89.151953	44.575977	0.000000	0.000000	44.575977	0.000000	0.000000	-89.151953	44.575977	0.000000	0.000000	-29.717318	0.000000	0.000000
1.850000	0.000000	0.000000	0.000000	0.000000	0.723061	0.000000	44.344023	0.000000	0.000000	-88.688047	44.344023	0.000000	0.000000	44.344023	0.000000	0.000000	-88.688047	44.344023	0.000000	0.000000	-29.562682	0.000000	0.000000
1.860000	0.000000	0.000000	0.000000	0.000000	0.724364	0.000000	44.064840	0.000000	0.000000	-88.129679	44.064840	0.000000	0.000000	44.064840	0.000000	0.000000	-88.129679	44.064840	0.000000	0.000000	-29.376560	0.000000	0.000000
1.870000	0.000000	0.000000	0.000000	0.000000	0.725880	0.000000	43.740000	0.000000	0.000000	-87.480000	43.740000	0.000000	0.000000	43.740000	0.000000	0.000000	-87.480000	43.740000	0.000000	0.000000	-29.160000	0.000000	0.000000
1.880000	0.000000	0.000000	0.000000	0.000000	0.727602	0.000000	43.371079	0.000000	0.000000	-86.742157	43.371079	0.000000	0.000000	43.371079	0.000000	0.000000	-86.742157	43.371079	0.000000	0.000000	-28.914052	0.000000	0.000000
1.890000	0.000000	0.000000	0.000000	0.000000	0.729522	0.000000	42.959650	0.000000	0.000000	-85.919300	42.959650	0.000000	0.000000	42.959650	0.000000	0.000000	-85.919300	42.959650	0.000000	0.000000	-28.639767	0.000000	0.000000
1.900000	0.000000	0.000000	0.000000	0.000000	0.731633	0.000000	42.507289	0.000000	0.000000	-85.014577	42.507289	0.000000	0.000000	42.507289	0.000000	0.000000	-85.014577	42.507289	0.000000	0.000000	-28.338192	0.000000	0.000000
1.910000	0.000000	0.000000	0.000000	0.000000	0.733927	0.000000	42.015569	0.000000	0.000000	-84.031137	42.015569	0.000000	0.000000	42.015569	0.000000	0.000000	-84.031137	42.015569	0.000000	0.000000	-28.010379	0.000000	0.000000
1.920000	0.000000	0.000000	0.000000	0.000000	0.736398	0.000000	41.486064	0.000000	0.000000	-82.972128	41.486064	0.000000	0.000000	41.486064	0.000000	0.000000	-82.972128	41.486064	0.000000	0.000000	-27.657376	0.000000	0.000000
1.930000	0.000000	0.000000	0.000000	0.000000	0.739038	0.000000	40.920350	0.000000	0.000000	-81.840700	40.920350	0.000000	0.000000	40.920350	0.000000	0.000000	-81.840700	40.920350	0.000000	0.000000	-27.280233	0.000000	0.000000
1.940000	0.000000	0.000000	0.000000	0.000000	0.741840	0.000000	40.320000	0.000000	0.000000	-80.640000	40.320000	0.000000	0.000000	40.320000	0.000000	0.000000	-80.640000	40.320000	0.000000	0.000000	-26.880000	0.000000	0.000000
1.950000	0.000000	0.000000	0.000000	0.000000	0.744796	0.000000	39.686589	0.000000	0.000000	-79.373178	39.686589	0.000000	0.000000	39.686589	0.000000	0.000000	-79.373178	39.686589	0.000000	0.000000	-26.457726	0.000000	0.000000
1.960000	0.000000	0.000000	0.000000	0.000000	0.747899	0.000000	39.021691	0.000000	0.000000	-78.043382	39.021691	0.000000	0.000000	39.021691	0.000000	0.000000	-78.043382	39.021691	0.000000	0.000000	-26.014461	0.000000	0.000000
1.970000	0.000000	0.000000	0.000000	0.000000	0.751141	0.000000	38.326880	0.000000	0.000000	-76.653761	38.326880	0.000000	0.000000	38.326880	0.000000	0.000000	-76.653761	38.326880	0.000000	0.000000	-25.551254	0.000000	0.000000
1.980000	0.000000	0.000000	0.000000	0.000000	0.754516	0.000000	37.603732	0.000000	0.000000	-75.207464	37.603732	0.000000	0.000000	37.603732	0.000000	0.000000	-75.207464	37.603732	0.000000	0.000000	-25.069155	0.000000	0.000000
1.990000	0.000000	0.000000	0.000000	0.000000	0.758016	0.000000	36.853819	0.000000	0.000000	-73.707638	36.853819	0.000000	0.000000	36.853819	0.000000	0.000000	-73.707638	36.853819	0.000000	0.000000	-24.569213	0.000000	0.000000
2.000000	0.000000	0.000000	0.000000	0.000000	0.761633	0.000000	36.078717	0.000000	0.000000	-72.157434	36.078717	0.000000	0.000000	36.078717	0.000000	0.000000	-72.157434	36.078717	0.000000	0.000000	-24.052478	0.000000	0.000000
2.010000	0.000000	0.000000	0.000000	0.000000	0.765360	0.000000	35.280000	0.000000	0.000000	-70.560000	35.280000	0.000000	0.000000	35.280000	0.000000	0.000000	-70.560000	35.280000	0.000000	0.000000	-23.520000	0.000000	0.000000
2.020000	0.000000	0.000000	0.000000	0.000000	0.769190	0.000000	34.459242	0.000000	0.000000	-68.918484	34.459242	0.000000	0.000000	34.459242	0.000000	0.000000	-68.918484	34.459242	0.000000	0.000000	-22.972828	0.000000	0.000000
2.030000	0.000000	0.000000	0.000000	0.000000	0.773116	0.000000	33.618017	0.000000	0.000000	-67.236035	33.618017	0.000000	0.000000	33.618017	0.000000	0.000000	-67.236035	33.618017	0.000000	0.000000	-22.412012	0.000000	0.000000
2.040000	0.000000	0.000000	0.000000	0.000000	0.777130	0.000000	32.757901	0.000000	0.000000	-65.515802	32.757901	0.000000	0.000000	32.757901	0.000000	0.000000	-65.515802	32.757901	0.000000	0.000000	-21.838601	0.000000	0.000000
2.050000	0.000000	0.000000	0.000000	0.000000	0.781224	0.000000	31.880466	0.000000	0.000000	-63.760933	31.880466	0.000000	0.000000	31.880466	0.000000	0.000000	-63.760933	31.880466	0.000000	0.000000	-21.253644	0.000000	0.000000
2.060000	0.000000	0.000000	0.000000	0.000000	0.785393	0.000000	30.987289	0.000000	0.000000	-61.974577	30.987289	0.000000	0.000000	30.987289	0.000000	0.000000	-61.974577	30.987289	0.000000	0.000000	-20.658192	0.000000	0.000000
2.070000	0.000000	0.000000	0.000000	0.000000	0.789627	0.000000	30.079942	0.000000	0.000000	-60.159883	30.079942	0.000000	0.000000	30.079942	0.000000	0.000000	-60.159883	30.079942	0.000000	0.000000	-20.053294	0.000000	0.000000
2.080000	0.000000	0.000000	0.000000	0.000000	0.793920	0.000000	29.160000	0.000000	0.000000	-58.320000	29.160000	0.000000	0.000000	29.160000	0.000000	0.000000	-58.320000	29.160000	0.000000	0.000000	-19.440000	0.000000	0.000000
2.090000	0.000000	0.000000	0.000000	0.000000	0.798264	0.000000	28.229038	0.000000	0.000000	-56.458076	28.229038	0.000000	0.000000	28.229038	0.000000	0.000000	-56.458076	28.229038	0.000000	0.000000	-18.819359	0.000000	0.000000
2.100000	0.000000	0.000000	0.000000	0.000000	0.802653	0.000000	27.288630	0.000000	0.000000	-54.577259	27.288630	0.000000	0.000000	27.288630	0.000000	0.000000	-54.577259	27.288630	0.000000	0.000000	-18.192420	0.000000	0.000000
2.110000	0.000000	0.000000	0.000000	0.000000	0.807078	0.000000	26.340350	0.000000	0.000000	-52.680700	26.340350	0.000000	0.000000	26.340350	0.000000	0.000000	-52.680700	26.340350	0.000000	0.000000	-17.560233	0.000000	0.000000
2.120000	0.000000	0.000000	0.000000	0.000000	0.811533	0.000000	25.385773	0.000000	0.000000	-50.771545	25.385773	0.000000	0.000000	25.385773	0.000000	0.000000	-50.771545	25.385773	0.000000	0.000000	-16.923848	0.000000	0.000000
2.130000	0.000000	0.000000	0.000000	0.000000	0.816010	0.000000	24.426472	0.000000	0.000000	-48.852945	24.426472	0.000000	0.000000	24.426472	0.000000	0.000000	-48.852945	24.426472	0.000000	0.000000	-16.284315	0.000000	0.000000
2.140000	0.000000	0.000000	0.000000	0.000000	0.820501	0.000000	23.464023	0.000000	0.000000	-46.928047	23.464023	0.000000	0.000000	23.464023	0.000000	0.000000	-46.928047	23.464023	0.000000	0.000000	-15.642682	0.000000	0.000000
2.150000	0.000000	0.000000	0.000000	0.000000	0.825000	0.000000	22.500000	0.000000	0.000000	-45.000000	22.500000	0.000000	0.000000	22.500000	0.000000	0.000000	-45.000000	22.500000	0.000000	0.000000	-15.000000	0.000000	0.000000
2.160000	0.000000	0.000000	0.000000	0.000000	0.829499	0.000000	21.535977	0.000000	0.000000	-43.071953	21.535977	0.000000	0.000000	21.535977	0.000000	0.000000	-43.071953	21.535977	0.000000	0.000000	-14.357318	0.000000	0.000000
2.170000	0.000000	0.000000	0.000000	0.000000	0.833990	0.000000	20.573528	0.000000	0.000000	-41.147055	20.573528	0.000000	0.000000	20.573528	0.000000	0.000000	-41.147055	20.573528	0.000000	0.000000	-13.715685	0.000000	0.000000
2.180000	0.000000	0.000000	0.000000	0.000000	0.838467	0.000000	19.614227	0.000000	0.000000	-39.228455	19.614227	0.000000	0.000000	19.614227	0.000000	0.000000	-39.228455	19.614227	0.000000	0.000000	-13.076152	0.000000	0.000000
2.190000	0.000000	0.000000	0.000000	0.000000	0.842922	0.000000	18.659650	0.000000	0.000000	-37.319300	18.659650	0.000000	0.000000	18.659650	0.000000	0.000000	-37.319300	18.659650	0.000000	0.000000	-12.439767	0.000000	0.000000
2.200000	0.000000	0.000000	0.000000	0.000000	0.847347	0.000000	17.711370	0.000000	0.000000	-35.422741	17.711370	0.000000	0.000000	17.711370	0.000000	0.000000	-35.422741	17.711370	0.000000	0.000000	-11.807580	0.000000	0.000000
2.210000	0.000000	0.000000	0.000000	0.000000	0.851736	0.000000	16.770962	0.000000	0.000000	-33.541924	16.770962	0.000000	0.000000	16.770962	0.000000	0.000000	-33.541924	16.770962	0.000000	0.000000	-11.180641	0.000000	0.000000
2.220000	0.000000	0.000000	0.000000	0.000000	0.856080	0.000000	15.840000	0.000000	0.000000	-31.680000	15.840000	0.000000	0.000000	15.840000	0.000000	0.000000	-31.680000	15.840000	0.000000	0.000000	-10.560000	0.000000	0.000000
2.230000	0.000000	0.000000	0.000000	0.000000	0.860373	0.000000	14.920058	0.000000	0.000000	-29.840117	14.920058	0.000000	0.000000	14.920058	0.000000	0.000000	-29.840117	14.920058	0.000000	0.000000	-9.946706	0.000000	0.000000
2.240000	0.000000	0.000000	0.000000	0.000000	0.864607	0.000000	14.012711	0.000000	0.000000	-28.025423	14.012711	0.000000	0.000000	14.012711	0.000000	0.000000	-28.025423	14.012711	0.000000	0.000000	-9.341808	0.000000	0.000000
2.250000	0.000000	0.000000	0.000000	0.000000	0.868776	0.000000	13.119534	0.000000	0.000000	-26.239067	13.119534	0.000000	0.000000	13.119534	0.000000	0.000000	-26.239067	13.119534	0.000000	0.000000	-8.746356	0.000000	0.000000
2.260000	0.000000	0.000000	0.000000	0.000000	0.872870	0.000000	12.242099	0.000000	0.000000	-24.484198	12.242099	0.000000	0.000000	12.242099	0.000000	0.000000	-24.484198	12.242099	0.000000	0.000000	-8.161399	0.000000	0.000000
2.270000	0.000000	0.000000	0.000000	0.000000	0.876884	0.000000	11.381983	0.000000	0.000000	-22.763965	11.381983	0.000000	0.000000	11.381983	0.000000	0.000000	-22.763965	11.381983	0.000000	0.000000	-7.587988	0.000000	0.000000
2.280000	0.000000	0.000000	0.000000	0.000000	0.880810	0.000000	10.540758	0.000000	0.000000	-21.081516	10.540758	0.000000	0.000000	10.540758	0.000000	0.000000	-21.081516	10.540758	0.000000	0.000000	-7.027172	0.000000	0.000000
2.290000	0.000000	0.000000	0.000000	0.000000	0.884640	0.000000	9.720000	0.000000	0.000000	-19.440000	9.720000	0.000000	0.000000	9.720000	0.000000	0.000000	-19.440000	9.720000	0.000000	0.000000	-6.480000	0.000000	0.000000
2.300000	0.000000	0.000000	0.000000	0.000000	0.888367	0.000000	8.921283	0.000000	0.000000	-17.842566	8.921283	0.000000	0.000000	8.921283	0.000000	0.000000	-17.842566	8.921283	0.000000	0.000000	-5.947522	0.000000	0.000000
2.310000	0.000000	0.000000	0.000000	0.000000	0.891984	0.000000	8.146181	0.000000	0.000000	-16.292362	8.146181	0.000000	0.000000	8.146181	0.000000	0.000000	-16.292362	8.146181	0.000000	0.000000	-5.430787	0.000000	0.000000
2.320000	0.000000	0.000000	0.000000	0.000000	0.895484	0.000000	7.396268	0.000000	0.000000	-14.792536	7.396268	0.000000	0.000000	7.396268	0.000000	0.000000	-14.792536	7.396268	0.000000	0.000000	-4.930845	0.000000	0.000000
2.330000	0.000000	0.000000	0.000000	0.000000	0.898859	0.000000	6.673120	0.000000	0.000000	-13.346239	6.673120	0.000000	0.000000	6.673120	0.000000	0.000000	-13.346239	6.673120	0.000000	0.000000	-4.448746	0.000000	0.000000
2.340000	0.000000	0.000000	0.000000	0.000000	0.902101	0.000000	5.978309	0.000000	0.000000	-11.956618	5.978309	0.000000	0.000000	5.978309	0.000000	0.000000	-11.956618	5.978309	0.000000	0.000000	-3.985539	0.000000	0.000000
2.350000	0.000000	0.000000	0.000000	0.000000	0.905204	0.000000	5.313411	0.000000	0.000000	-10.626822	5.313411	0.000000	0.000000	5.313411	0.000000	0.000000	-10.626822	5.313411	0.000000	0.000000	-3.542274	0.000000	0.000000
2.360000	0.000000	0.000000	0.000000	0.000000	0.908160	0.000000	4.680000	0.000000	0.000000	-9.360000	4.680000	0.000000	0.000000	4.680000	0.000000	0.000000	-9.360000	4.680000	0.000000	0.000000	-3.120000	0.000000	0.000000
2.370000	0.000000	0.000000	0.000000	0.000000	0.910962	0.000000	4.079650	0.000000	0.000000	-8.159300	4.079650	0.000000	0.000000	4.079650	0.000000	0.000000	-8.159300	4.079650	0.000000	0.000000	-2.719767	0.000000	0.000000
2.380000	0.000000	0.000000	0.000000	0.000000	0.913602	0.000000	3.513936	0.000000	0.000000	-7.027872	3.513936	0.000000	0.000000	3.513936	0.000000	0.000000	-7.027872	3.513936	0.000000	0.000000	-2.342624	0.000000	0.000000
2.390000	0.000000	0.000000	0.000000	0.000000	0.916073	0.000000	2.984431	0.000000	0.000000	-5.968863	2.984431	0.000000	0.000000	2.984431	0.000000	0.000000	-5.968863	2.984431	0.000000	0.000000	-1.989621	0.000000	0.000000
2.400000	0.000000	0.000000	0.000000	0.000000	0.918367	0.000000	2.492711	0.000000	0.000000	-4.985423	2.492711	0.000000	0.000000	2.492711	0.000000	0.000000	-4.985423	2.492711	0.000000	0.000000	-1.661808	0.000000	0.000000
2.410000	0.000000	0.000000	0.000000	0.000000	0.920478	0.000000	2.040350	0.000000	0.000000	-4.080700	2.040350	0.000000	0.000000	2.040350	0.000000	0.000000	-4.080700	2.040350	0.000000	0.000000	-1.360233	0.000000	0.000000
2.420000	0.000000	0.000000	0.000000	0.000000	0.922398	0.000000	1.628921	0.000000	0.000000	-3.257843	1.628921	0.000000	0.000000	1.628921	0.000000	0.000000	-3.257843	1.628921	0.000000	0.000000	-1.085948	0.000000	0.000000
2.430000	0.000000	0.000000	0.000000	0.000000	0.924120	0.000000	1.260000	0.000000	0.000000	-2.520000	1.260000	0.000000	0.000000	1.260000	0.000000	0.000000	-2.520000	1.260000	0.000000	0.000000	-0.840000	0.000000	0.000000
2.440000	0.000000	0.000000	0.000000	0.000000	0.925636	0.000000	0.935160	0.000000	0.000000	-1.870321	0.935160	0.000000	0.000000	0.935160	0.000000	0.000000	-1.870321	0.935160	0.000000	0.000000	-0.623440	0.000000	0.000000
2.450000	0.000000	0.000000	0.000000	0.000000	0.926939	0.000000	0.655977	0.000000	0.000000	-1.311953	0.655977	0.000000	0.000000	0.655977	0.000000	0.000000	-1.311953	0.655977	0.000000	0.000000	-0.437318	0.000000	0.000000
2.460000	0.000000	0.000000	0.000000	0.000000	0.928021	0.000000	0.424023	0.000000	0.000000	-0.848047	0.424023	0.000000	0.000000	0.424023	0.000000	0.000000	-0.848047	0.424023	0.000000	0.000000	-0.282682	0.000000	0.000000
2.470000	0.000000	0.000000	0.000000	0.000000	0.928876	0.000000	0.240875	0.000000	0.000000	-0.481749	0.240875	0.000000	0.000000	0.240875	0.000000	0.000000	-0.481749	0.240875	0.000000	0.000000	-0.160583	0.000000	0.000000
2.480000	0.000000	0.000000	0.000000	0.000000	0.929496	0.000000	0.108105	0.000000	0.000000	-0.216210	0.108105	0.000000	0.000000	0.108105	0.000000	0.000000	-0.216210	0.108105	0.000000	0.000000	-0.072070	0.000000	0.000000
2.490000	0.000000	0.000000	0.000000	0.000000	0.929873	0.000000	0.027289	0.000000	0.000000	-0.054577	0.027289	0.000000	0.000000	0.027289	0.000000	0.000000	-0.054577	0.027289	0.000000	0.000000	-0.018192	0.000000	0.000000
2.500000	0.000000	0.000000	0.000000	0.000000	0.930000	0.000000	0.000000	0.000000	0.000000	0.000000	0.000000	0.000000	0.000000	0.000000	0.000000	0.000000	0.000000	0.000000	0.000000	0.000000	0.000000	0.000000	0.000000
