ScaledJumpMotion
version=1
nRows=251
nColumns=24
inDegrees=yes
endheader
time	pelvis_tilt	pelvis_list	pelvis_rotation	pelvis_tx	pelvis_ty	pelvis_tz	hip_flexion_r	hip_adduction_r	hip_rotation_r	knee_angle_r	ankle_angle_r	subtalar_angle_r	mtp_angle_r	hip_flexion_l	hip_adduction_l	hip_rotation_l	knee_angle_l	ankle_angle_l	subtalar_angle_l	mtp_angle_l	lumbar_extension	lumbar_bending	lumbar_rotation
0.0	0.0	0.0	0.0	0.0	0.93	0.0	0.0	0.0	0.0	0.0	0.0	0.0	0.0	0.0	0.0	0.0	0.0	0.0	0.0	0.0	0.0	0.0	0.0
0.01	0.0	0.0	0.0	0.0	0.93	0.0	0.0	0.0	0.0	0.0	0.0	0.0	0.0	0.0	0.0	0.0	0.0	0.0	0.0	0.0	0.0	0.0	0.0
0.02	0.0	0.0	0.0	0.0	0.93	0.0	0.0	0.0	0.0	0.0	0.0	0.0	0.0	0.0	0.0	0.0	0.0	0.0	0.0	0.0	0.0	0.0	0.0
0.03	0.0	0.0	0.0	0.0	0.93	0.0	0.0	0.0	0.0	0.0	0.0	0.0	0.0	0.0	0.0	0.0	0.0	0.0	0.0	0.0	0.0	0.0	0.0
0.04	0.0	0.0	0.0	0.0	0.93	0.0	0.0	0.0	0.0	0.0	0.0	0.0	0.0	0.0	0.0	0.0	0.0	0.0	0.0	0.0	0.0	0.0	0.0
0.05	0.0	0.0	0.0	0.0	0.93	0.0	0.0	0.0	0.0	0.0	0.0	0.0	0.0	0.0	0.0	0.0	0.0	0.0	0.0	0.0	0.0	0.0	0.0
0.06	0.0	0.0	0.0	0.0	0.93	0.0	0.0	0.0	0.0	0.0	0.0	0.0	0.0	0.0	0.0	0.0	0.0	0.0	0.0	0.0	0.0	0.0	0.0
0.07	0.0	0.0	0.0	0.0	0.93	0.0	0.0	0.0	0.0	0.0	0.0	0.0	0.0	0.0	0.0	0.0	0.0	0.0	0.0	0.0	0.0	0.0	0.0
0.08	0.0	0.0	0.0	0.0	0.93	0.0	0.0	0.0	0.0	0.0	0.0	0.0	0.0	0.0	0.0	0.0	0.0	0.0	0.0	0.0	0.0	0.0	0.0
0.09	0.0	0.0	0.0	0.0	0.93	0.0	0.0	0.0	0.0	0.0	0.0	0.0	0.0	0.0	0.0	0.0	0.0	0.0	0.0	0.0	0.0	0.0	0.0
0.1	0.0	0.0	0.0	0.0	0.93	0.0	0.0	0.0	0.0	0.0	0.0	0.0	0.0	0.0	0.0	0.0	0.0	0.0	0.0	0.0	0.0	0.0	0.0
0.11	0.0	0.0	0.0	0.0	0.93	0.0	0.0	0.0	0.0	0.0	0.0	0.0	0.0	0.0	0.0	0.0	0.0	0.0	0.0	0.0	0.0	0.0	0.0
0.12	0.0	0.0	0.0	0.0	0.93	0.0	0.0	0.0	0.0	0.0	0.0	0.0	0.0	0.0	0.0	0.0	0.0	0.0	0.0	0.0	0.0	0.0	0.0
0.13	0.0	0.0	0.0	0.0	0.93	0.0	0.0	0.0	0.0	0.0	0.0	0.0	0.0	0.0	0.0	0.0	0.0	0.0	0.0	0.0	0.0	0.0	0.0
0.14	0.0	0.0	0.0	0.0	0.93	0.0	0.0	0.0	0.0	0.0	0.0	0.0	0.0	0.0	0.0	0.0	0.0	0.0	0.0	0.0	0.0	0.0	0.0
0.15	0.0	0.0	0.0	0.0	0.93	0.0	0.0	0.0	0.0	0.0	0.0	0.0	0.0	0.0	0.0	0.0	0.0	0.0	0.0	0.0	0.0	0.0	0.0
0.16	0.0	0.0	0.0	0.0	0.93	0.0	0.0	0.0	0.0	0.0	0.0	0.0	0.0	0.0	0.0	0.0	0.0	0.0	0.0	0.0	0.0	0.0	0.0
0.17	0.0	0.0	0.0	0.0	0.93	0.0	0.0	0.0	0.0	0.0	0.0	0.0	0.0	0.0	0.0	0.0	0.0	0.0	0.0	0.0	0.0	0.0	0.0
0.18	0.0	0.0	0.0	0.0	0.93	0.0	0.0	0.0	0.0	0.0	0.0	0.0	0.0	0.0	0.0	0.0	0.0	0.0	0.0	0.0	0.0	0.0	0.0
0.19	0.0	0.0	0.0	0.0	0.93	0.0	0.0	0.0	0.0	0.0	0.0	0.0	0.0	0.0	0.0	0.0	0.0	0.0	0.0	0.0	0.0	0.0	0.0
0.2	0.0	0.0	0.0	0.0	0.93	0.0	0.0	0.0	0.0	0.0	0.0	0.0	0.0	0.0	0.0	0.0	0.0	0.0	0.0	0.0	0.0	0.0	0.0
0.21	0.0	0.0	0.0	0.0	0.93	0.0	0.0	0.0	0.0	0.0	0.0	0.0	0.0	0.0	0.0	0.0	0.0	0.0	0.0	0.0	0.0	0.0	0.0
0.22	0.0	0.0	0.0	0.0	0.93	0.0	0.0	0.0	0.0	0.0	0.0	0.0	0.0	0.0	0.0	0.0	0.0	0.0	0.0	0.0	0.0	0.0	0.0
0.23	0.0	0.0	0.0	0.0	0.93	0.0	0.0	0.0	0.0	0.0	0.0	0.0	0.0	0.0	0.0	0.0	0.0	0.0	0.0	0.0	0.0	0.0	0.0
0.24	0.0	0.0	0.0	0.0	0.93	0.0	0.0	0.0	0.0	0.0	0.0	0.0	0.0	0.0	0.0	0.0	0.0	0.0	0.0	0.0	0.0	0.0	0.0
0.25	0.0	0.0	0.0	0.0	0.93	0.0	0.0	0.0	0.0	0.0	0.0	0.0	0.0	0.0	0.0	0.0	0.0	0.0	0.0	0.0	0.0	0.0	0.0
0.26	0.0	0.0	0.0	0.0	0.93	0.0	0.0	0.0	0.0	0.0	0.0	0.0	0.0	0.0	0.0	0.0	0.0	0.0	0.0	0.0	0.0	0.0	0.0
0.27	0.0	0.0	0.0	0.0	0.93	0.0	0.0	0.0	0.0	0.0	0.0	0.0	0.0	0.0	0.0	0.0	0.0	0.0	0.0	0.0	0.0	0.0	0.0
0.28	0.0	0.0	0.0	0.0	0.93	0.0	0.0	0.0	0.0	0.0	0.0	0.0	0.0	0.0	0.0	0.0	0.0	0.0	0.0	0.0	0.0	0.0	0.0
0.29	0.0	0.0	0.0	0.0	0.93	0.0	0.0	0.0	0.0	0.0	0.0	0.0	0.0	0.0	0.0	0.0	0.0	0.0	0.0	0.0	0.0	0.0	0.0
0.3	0.0	0.0	0.0	0.0	0.93	0.0	0.0	0.0	0.0	0.0	0.0	0.0	0.0	0.0	0.0	0.0	0.0	0.0	0.0	0.0	0.0	0.0	0.0
0.31	0.0	0.0	0.0	0.0	0.93	0.0	0.0	0.0	0.0	0.0	0.0	0.0	0.0	0.0	0.0	0.0	0.0	0.0	0.0	0.0	0.0	0.0	0.0
0.32	0.0	0.0	0.0	0.0	0.93	0.0	0.0	0.0	0.0	0.0	0.0	0.0	0.0	0.0	0.0	0.0	0.0	0.0	0.0	0.0	0.0	0.0	0.0
0.33	0.0	0.0	0.0	0.0	0.93	0.0	0.0	0.0	0.0	0.0	0.0	0.0	0.0	0.0	0.0	0.0	0.0	0.0	0.0	0.0	0.0	0.0	0.0
0.34	0.0	0.0	0.0	0.0	0.93	0.0	0.0	0.0	0.0	0.0	0.0	0.0	0.0	0.0	0.0	0.0	0.0	0.0	0.0	0.0	0.0	0.0	0.0
0.35	0.0	0.0	0.0	0.0	0.93	0.0	0.0	0.0	0.0	0.0	0.0	0.0	0.0	0.0	0.0	0.0	0.0	0.0	0.0	0.0	0.0	0.0	0.0
0.36	0.0	0.0	0.0	0.0	0.93	0.0	0.0	0.0	0.0	0.0	0.0	0.0	0.0	0.0	0.0	0.0	0.0	0.0	0.0	0.0	0.0	0.0	0.0
0.37	0.0	0.0	0.0	0.0	0.93	0.0	0.0	0.0	0.0	0.0	0.0	0.0	0.0	0.0	0.0	0.0	0.0	0.0	0.0	0.0	0.0	0.0	0.0
0.38	0.0	0.0	0.0	0.0	0.93	0.0	0.0	0.0	0.0	0.0	0.0	0.0	0.0	0.0	0.0	0.0	0.0	0.0	0.0	0.0	0.0	0.0	0.0
0.39	0.0	0.0	0.0	0.0	0.93	0.0	0.0	0.0	0.0	0.0	0.0	0.0	0.0	0.0	0.0	0.0	0.0	0.0	0.0	0.0	0.0	0.0	0.0
0.4	0.0	0.0	0.0	0.0	0.93	0.0	0.0	0.0	0.0	0.0	0.0	0.0	0.0	0.0	0.0	0.0	0.0	0.0	0.0	0.0	0.0	0.0	0.0
0.41	0.0	0.0	0.0	0.0	0.93	0.0	0.0	0.0	0.0	0.0	0.0	0.0	0.0	0.0	0.0	0.0	0.0	0.0	0.0	0.0	0.0	0.0	0.0
0.42	0.0	0.0	0.0	0.0	0.93	0.0	0.0	0.0	0.0	0.0	0.0	0.0	0.0	0.0	0.0	0.0	0.0	0.0	0.0	0.0	0.0	0.0	0.0
0.43	0.0	0.0	0.0	0.0	0.93	0.0	0.0	0.0	0.0	0.0	0.0	0.0	0.0	0.0	0.0	0.0	0.0	0.0	0.0	0.0	0.0	0.0	0.0
0.44	0.0	0.0	0.0	0.0	0.93	0.0	0.0	0.0	0.0	0.0	0.0	0.0	0.0	0.0	0.0	0.0	0.0	0.0	0.0	0.0	0.0	0.0	0.0
0.45	0.0	0.0	0.0	0.0	0.93	0.0	0.0	0.0	0.0	0.0	0.0	0.0	0.0	0.0	0.0	0.0	0.0	0.0	0.0	0.0	0.0	0.0	0.0
0.46	0.0	0.0	0.0	0.0	0.93	0.0	0.0	0.0	0.0	0.0	0.0	0.0	0.0	0.0	0.0	0.0	0.0	0.0	0.0	0.0	0.0	0.0	0.0
0.47	0.0	0.0	0.0	0.0	0.93	0.0	0.0	0.0	0.0	0.0	0.0	0.0	0.0	0.0	0.0	0.0	0.0	0.0	0.0	0.0	0.0	0.0	0.0
0.48	0.0	0.0	0.0	0.0	0.93	0.0	0.0	0.0	0.0	0.0	0.0	0.0	0.0	0.0	0.0	0.0	0.0	0.0	0.0	0.0	0.0	0.0	0.0
0.49	0.0	0.0	0.0	0.0	0.93	0.0	0.0	0.0	0.0	0.0	0.0	0.0	0.0	0.0	0.0	0.0	0.0	0.0	0.0	0.0	0.0	0.0	0.0
0.5	0.0	0.0	0.0	0.0	0.93	0.0	0.0	0.0	0.0	0.0	0.0	0.0	0.0	0.0	0.0	0.0	0.0	0.0	0.0	0.0	0.0	0.0	0.0
0.51	0.0	0.0	0.0	0.0	0.9299141379310345	0.0	0.018372413793103448	0.0	0.0	-0.036744827586206896	0.018372413793103448	0.0	0.0	0.018372413793103448	0.0	0.0	-0.036744827586206896	0.018372413793103448	0.0	0.0	-0.012248275862068966	0.0	0.0
0.52	0.0	0.0	0.0	0.0	0.9296617241379311	0.0	0.07249655172413792	0.0	0.0	-0.14499310344827585	0.07249655172413792	0.0	0.0	0.07249655172413792	0.0	0.0	-0.14499310344827585	0.07249655172413792	0.0	0.0	-0.04833103448275862	0.0	0.0
0.53	0.0	0.0	0.0	0.0	0.9292493103448276	0.0	0.16088275862068963	0.0	0.0	-0.32176551724137925	0.16088275862068963	0.0	0.0	0.16088275862068963	0.0	0.0	-0.32176551724137925	0.16088275862068963	0.0	0.0	-0.10725517241379309	0.0	0.0
0.54	0.0	0.0	0.0	0.0	0.9286837931034483	0.0	0.2820413793103448	0.0	0.0	-0.5640827586206896	0.2820413793103448	0.0	0.0	0.2820413793103448	0.0	0.0	-0.5640827586206896	0.2820413793103448	0.0	0.0	-0.18802758620689652	0.0	0.0
0.55	0.0	0.0	0.0	0.0	0.9279724137931035	0.0	0.43448275862068964	0.0	0.0	-0.8689655172413793	0.43448275862068964	0.0	0.0	0.43448275862068964	0.0	0.0	-0.8689655172413793	0.43448275862068964	0.0	0.0	-0.28965517241379307	0.0	0.0
0.56	0.0	0.0	0.0	0.0	0.9271220689655173	0.0	0.6167172413793103	0.0	0.0	-1.2334344827586206	0.6167172413793103	0.0	0.0	0.6167172413793103	0.0	0.0	-1.2334344827586206	0.6167172413793103	0.0	0.0	-0.41114482758620685	0.0	0.0
0.57	0.0	0.0	0.0	0.0	0.9261393103448275	0.0	0.827255172413793	0.0	0.0	-1.654510344827586	0.827255172413793	0.0	0.0	0.827255172413793	0.0	0.0	-1.654510344827586	0.827255172413793	0.0	0.0	-0.551503448275862	0.0	0.0
0.58	0.0	0.0	0.0	0.0	0.925031724137931	0.0	1.064606896551724	0.0	0.0	-2.129213793103448	1.064606896551724	0.0	0.0	1.064606896551724	0.0	0.0	-2.129213793103448	1.064606896551724	0.0	0.0	-0.7097379310344827	0.0	0.0
0.59	0.0	0.0	0.0	0.0	0.9238058620689655	0.0	1.3272827586206897	0.0	0.0	-2.6545655172413793	1.3272827586206897	0.0	0.0	1.3272827586206897	0.0	0.0	-2.6545655172413793	1.3272827586206897	0.0	0.0	-0.884855172413793	0.0	0.0
0.6	0.0	0.0	0.0	0.0	0.9224689655172414	0.0	1.6137931034482755	0.0	0.0	-3.227586206896551	1.6137931034482755	0.0	0.0	1.6137931034482755	0.0	0.0	-3.227586206896551	1.6137931034482755	0.0	0.0	-1.0758620689655172	0.0	0.0
0.61	0.0	0.0	0.0	0.0	0.9210275862068966	0.0	1.9226482758620689	0.0	0.0	-3.8452965517241378	1.9226482758620689	0.0	0.0	1.9226482758620689	0.0	0.0	-3.8452965517241378	1.9226482758620689	0.0	0.0	-1.281765517241379	0.0	0.0
0.62	0.0	0.0	0.0	0.0	0.9194889655172415	0.0	2.252358620689655	0.0	0.0	-4.50471724137931	2.252358620689655	0.0	0.0	2.252358620689655	0.0	0.0	-4.50471724137931	2.252358620689655	0.0	0.0	-1.5015724137931035	0.0	0.0
0.63	0.0	0.0	0.0	0.0	0.91786	0.0	2.6014344827586204	0.0	0.0	-5.202868965517241	2.6014344827586204	0.0	0.0	2.6014344827586204	0.0	0.0	-5.202868965517241	2.6014344827586204	0.0	0.0	-1.7342896551724136	0.0	0.0
0.64	0.0	0.0	0.0	0.0	0.9161475862068966	0.0	2.9683862068965516	0.0	0.0	-5.936772413793103	2.9683862068965516	0.0	0.0	2.9683862068965516	0.0	0.0	-5.936772413793103	2.9683862068965516	0.0	0.0	-1.9789241379310343	0.0	0.0
0.65	0.0	0.0	0.0	0.0	0.9143586206896552	0.0	3.3517241379310345	0.0	0.0	-6.703448275862069	3.3517241379310345	0.0	0.0	3.3517241379310345	0.0	0.0	-6.703448275862069	3.3517241379310345	0.0	0.0	-2.2344827586206897	0.0	0.0
0.66	0.0	0.0	0.0	0.0	0.9125003448275862	0.0	3.7499586206896547	0.0	0.0	-7.499917241379309	3.7499586206896547	0.0	0.0	3.7499586206896547	0.0	0.0	-7.499917241379309	3.7499586206896547	0.0	0.0	-2.4999724137931034	0.0	0.0
0.67	0.0	0.0	0.0	0.0	0.9105793103448276	0.0	4.1616	0.0	0.0	-8.3232	4.1616	0.0	0.0	4.1616	0.0	0.0	-8.3232	4.1616	0.0	0.0	-2.7743999999999995	0.0	0.0
0.68	0.0	0.0	0.0	0.0	0.9086027586206897	0.0	4.585158620689655	0.0	0.0	-9.17031724137931	4.585158620689655	0.0	0.0	4.585158620689655	0.0	0.0	-9.17031724137931	4.585158620689655	0.0	0.0	-3.056772413793103	0.0	0.0
0.69	0.0	0.0	0.0	0.0	0.9065772413793104	0.0	5.0191448275862065	0.0	0.0	-10.038289655172413	5.0191448275862065	0.0	0.0	5.0191448275862065	0.0	0.0	-10.038289655172413	5.0191448275862065	0.0	0.0	-3.3460965517241377	0.0	0.0
0.7	0.0	0.0	0.0	0.0	0.9045103448275862	0.0	5.462068965517241	0.0	0.0	-10.924137931034481	5.462068965517241	0.0	0.0	5.462068965517241	0.0	0.0	-10.924137931034481	5.462068965517241	0.0	0.0	-3.6413793103448273	0.0	0.0
0.71	0.0	0.0	0.0	0.0	0.9024086206896552	0.0	5.912441379310344	0.0	0.0	-11.824882758620689	5.912441379310344	0.0	0.0	5.912441379310344	0.0	0.0	-11.824882758620689	5.912441379310344	0.0	0.0	-3.9416275862068963	0.0	0.0
0.72	0.0	0.0	0.0	0.0	0.9002789655172414	0.0	6.368772413793103	0.0	0.0	-12.737544827586206	6.368772413793103	0.0	0.0	6.368772413793103	0.0	0.0	-12.737544827586206	6.368772413793103	0.0	0.0	-4.245848275862069	0.0	0.0
0.73	0.0	0.0	0.0	0.0	0.8981286206896553	0.0	6.829572413793103	0.0	0.0	-13.659144827586205	6.829572413793103	0.0	0.0	6.829572413793103	0.0	0.0	-13.659144827586205	6.829572413793103	0.0	0.0	-4.553048275862069	0.0	0.0
0.74	0.0	0.0	0.0	0.0	0.8959644827586207	0.0	7.29335172413793	0.0	0.0	-14.58670344827586	7.29335172413793	0.0	0.0	7.29335172413793	0.0	0.0	-14.58670344827586	7.29335172413793	0.0	0.0	-4.86223448275862	0.0	0.0
0.75	0.0	0.0	0.0	0.0	0.8937931034482759	0.0	7.758620689655172	0.0	0.0	-15.517241379310343	7.758620689655172	0.0	0.0	7.758620689655172	0.0	0.0	-15.517241379310343	7.758620689655172	0.0	0.0	-5.1724137931034475	0.0	0.0
0.76	0.0	0.0	0.0	0.0	0.8916217241379311	0.0	8.223889655172414	0.0	0.0	-16.447779310344828	8.223889655172414	0.0	0.0	8.223889655172414	0.0	0.0	-16.447779310344828	8.223889655172414	0.0	0.0	-5.482593103448275	0.0	0.0
0.77	0.0	0.0	0.0	0.0	0.8894575862068966	0.0	8.687668965517242	0.0	0.0	-17.375337931034483	8.687668965517242	0.0	0.0	8.687668965517242	0.0	0.0	-17.375337931034483	8.687668965517242	0.0	0.0	-5.791779310344827	0.0	0.0
0.78	0.0	0.0	0.0	0.0	0.8873072413793104	0.0	9.14846896551724	0.0	0.0	-18.29693793103448	9.14846896551724	0.0	0.0	9.14846896551724	0.0	0.0	-18.29693793103448	9.14846896551724	0.0	0.0	-6.098979310344827	0.0	0.0
0.79	0.0	0.0	0.0	0.0	0.8851775862068966	0.0	9.6048	0.0	0.0	-19.2096	9.6048	0.0	0.0	9.6048	0.0	0.0	-19.2096	9.6048	0.0	0.0	-6.403199999999999	0.0	0.0
0.8	0.0	0.0	0.0	0.0	0.8830758620689655	0.0	10.055172413793102	0.0	0.0	-20.110344827586204	10.055172413793102	0.0	0.0	10.055172413793102	0.0	0.0	-20.110344827586204	10.055172413793102	0.0	0.0	-6.703448275862069	0.0	0.0
0.81	0.0	0.0	0.0	0.0	0.8810089655172414	0.0	10.498096551724137	0.0	0.0	-20.996193103448274	10.498096551724137	0.0	0.0	10.498096551724137	0.0	0.0	-20.996193103448274	10.498096551724137	0.0	0.0	-6.998731034482758	0.0	0.0
0.82	0.0	0.0	0.0	0.0	0.8789834482758621	0.0	10.93208275862069	0.0	0.0	-21.86416551724138	10.93208275862069	0.0	0.0	10.93208275862069	0.0	0.0	-21.86416551724138	10.93208275862069	0.0	0.0	-7.288055172413792	0.0	0.0
0.83	0.0	0.0	0.0	0.0	0.8770068965517241	0.0	11.355641379310343	0.0	0.0	-22.711282758620687	11.355641379310343	0.0	0.0	11.355641379310343	0.0	0.0	-22.711282758620687	11.355641379310343	0.0	0.0	-7.570427586206895	0.0	0.0
0.84	0.0	0.0	0.0	0.0	0.8750858620689655	0.0	11.76728275862069	0.0	0.0	-23.53456551724138	11.76728275862069	0.0	0.0	11.76728275862069	0.0	0.0	-23.53456551724138	11.76728275862069	0.0	0.0	-7.8448551724137925	0.0	0.0
0.85	0.0	0.0	0.0	0.0	0.8732275862068966	0.0	12.165517241379309	0.0	0.0	-24.331034482758618	12.165517241379309	0.0	0.0	12.165517241379309	0.0	0.0	-24.331034482758618	12.165517241379309	0.0	0.0	-8.110344827586205	0.0	0.0
0.86	0.0	0.0	0.0	0.0	0.8714386206896552	0.0	12.548855172413793	0.0	0.0	-25.097710344827586	12.548855172413793	0.0	0.0	12.548855172413793	0.0	0.0	-25.097710344827586	12.548855172413793	0.0	0.0	-8.36590344827586	0.0	0.0
0.87	0.0	0.0	0.0	0.0	0.8697262068965518	0.0	12.915806896551723	0.0	0.0	-25.831613793103447	12.915806896551723	0.0	0.0	12.915806896551723	0.0	0.0	-25.831613793103447	12.915806896551723	0.0	0.0	-8.610537931034482	0.0	0.0
0.88	0.0	0.0	0.0	0.0	0.8680972413793103	0.0	13.264882758620688	0.0	0.0	-26.529765517241376	13.264882758620688	0.0	0.0	13.264882758620688	0.0	0.0	-26.529765517241376	13.264882758620688	0.0	0.0	-8.843255172413793	0.0	0.0
0.89	0.0	0.0	0.0	0.0	0.8665586206896552	0.0	13.594593103448275	0.0	0.0	-27.18918620689655	13.594593103448275	0.0	0.0	13.594593103448275	0.0	0.0	-27.18918620689655	13.594593103448275	0.0	0.0	-9.063062068965516	0.0	0.0
0.9	0.0	0.0	0.0	0.0	0.8651172413793105	0.0	13.903448275862068	0.0	0.0	-27.806896551724137	13.903448275862068	0.0	0.0	13.903448275862068	0.0	0.0	-27.806896551724137	13.903448275862068	0.0	0.0	-9.268965517241378	0.0	0.0
0.91	0.0	0.0	0.0	0.0	0.8637803448275863	0.0	14.189958620689653	0.0	0.0	-28.379917241379307	14.189958620689653	0.0	0.0	14.189958620689653	0.0	0.0	-28.379917241379307	14.189958620689653	0.0	0.0	-9.459972413793103	0.0	0.0
0.92	0.0	0.0	0.0	0.0	0.8625544827586207	0.0	14.45263448275862	0.0	0.0	-28.90526896551724	14.45263448275862	0.0	0.0	14.45263448275862	0.0	0.0	-28.90526896551724	14.45263448275862	0.0	0.0	-9.635089655172413	0.0	0.0
0.93	0.0	0.0	0.0	0.0	0.8614468965517241	0.0	14.68998620689655	0.0	0.0	-29.3799724137931	14.68998620689655	0.0	0.0	14.68998620689655	0.0	0.0	-29.3799724137931	14.68998620689655	0.0	0.0	-9.793324137931034	0.0	0.0
0.94	0.0	0.0	0.0	0.0	0.8604641379310345	0.0	14.900524137931033	0.0	0.0	-29.801048275862065	14.900524137931033	0.0	0.0	14.900524137931033	0.0	0.0	-29.801048275862065	14.900524137931033	0.0	0.0	-9.933682758620689	0.0	0.0
0.95	0.0	0.0	0.0	0.0	0.8596137931034483	0.0	15.082758620689654	0.0	0.0	-30.16551724137931	15.082758620689654	0.0	0.0	15.082758620689654	0.0	0.0	-30.16551724137931	15.082758620689654	0.0	0.0	-10.055172413793102	0.0	0.0
0.96	0.0	0.0	0.0	0.0	0.8589024137931035	0.0	15.235199999999999	0.0	0.0	-30.470399999999998	15.235199999999999	0.0	0.0	15.235199999999999	0.0	0.0	-30.470399999999998	15.235199999999999	0.0	0.0	-10.156799999999999	0.0	0.0
0.97	0.0	0.0	0.0	0.0	0.8583368965517242	0.0	15.356358620689653	0.0	0.0	-30.712717241379305	15.356358620689653	0.0	0.0	15.356358620689653	0.0	0.0	-30.712717241379305	15.356358620689653	0.0	0.0	-10.237572413793103	0.0	0.0
0.98	0.0	0.0	0.0	0.0	0.8579244827586208	0.0	15.444744827586206	0.0	0.0	-30.88948965517241	15.444744827586206	0.0	0.0	15.444744827586206	0.0	0.0	-30.88948965517241	15.444744827586206	0.0	0.0	-10.296496551724136	0.0	0.0
0.99	0.0	0.0	0.0	0.0	0.8576720689655173	0.0	15.49886896551724	0.0	0.0	-30.99773793103448	15.49886896551724	0.0	0.0	15.49886896551724	0.0	0.0	-30.99773793103448	15.49886896551724	0.0	0.0	-10.332579310344826	0.0	0.0
1.0	0.0	0.0	0.0	0.0	0.8575862068965517	0.0	15.517241379310343	0.0	0.0	-31.034482758620687	15.517241379310343	0.0	0.0	15.517241379310343	0.0	0.0	-31.034482758620687	15.517241379310343	0.0	0.0	-10.344827586206895	0.0	0.0
1.01	0.0	0.0	0.0	0.0	0.8584110344827587	0.0	15.404741379310343	0.0	0.0	-30.809482758620685	15.329741379310342	0.0	0.0	15.404741379310343	0.0	0.0	-30.809482758620685	15.329741379310342	0.0	0.0	-10.269827586206896	0.0	0.0
1.02	0.0	0.0	0.0	0.0	0.8607724137931034	0.0	15.082758620689654	0.0	0.0	-30.16551724137931	14.79310344827586	0.0	0.0	15.082758620689654	0.0	0.0	-30.16551724137931	14.79310344827586	0.0	0.0	-10.055172413793102	0.0	0.0
1.03	0.0	0.0	0.0	0.0	0.8644989655172415	0.0	14.57456896551724	0.0	0.0	-29.14913793103448	13.94612068965517	0.0	0.0	14.57456896551724	0.0	0.0	-29.14913793103448	13.94612068965517	0.0	0.0	-9.716379310344825	0.0	0.0
1.04	0.0	0.0	0.0	0.0	0.8694206896551725	0.0	13.903448275862068	0.0	0.0	-27.806896551724137	12.827586206896552	0.0	0.0	13.903448275862068	0.0	0.0	-27.806896551724137	12.827586206896552	0.0	0.0	-9.268965517241378	0.0	0.0
1.05	0.0	0.0	0.0	0.0	0.875366551724138	0.0	13.092672413793101	0.0	0.0	-26.185344827586203	11.476293103448274	0.0	0.0	13.092672413793101	0.0	0.0	-26.185344827586203	11.476293103448274	0.0	0.0	-8.728448275862068	0.0	0.0
1.06	0.0	0.0	0.0	0.0	0.8821655172413794	0.0	12.165517241379309	0.0	0.0	-24.331034482758618	9.93103448275862	0.0	0.0	12.165517241379309	0.0	0.0	-24.331034482758618	9.93103448275862	0.0	0.0	-8.110344827586205	0.0	0.0
1.07	0.0	0.0	0.0	0.0	0.8896475862068965	0.0	11.145258620689654	0.0	0.0	-22.29051724137931	8.230603448275861	0.0	0.0	11.145258620689654	0.0	0.0	-22.29051724137931	8.230603448275861	0.0	0.0	-7.430172413793103	0.0	0.0
1.08	0.0	0.0	0.0	0.0	0.8976413793103448	0.0	10.055172413793102	0.0	0.0	-20.110344827586204	6.413793103448276	0.0	0.0	10.055172413793102	0.0	0.0	-20.110344827586204	6.413793103448276	0.0	0.0	-6.703448275862069	0.0	0.0
1.09	0.0	0.0	0.0	0.0	0.9059768965517242	0.0	8.91853448275862	0.0	0.0	-17.83706896551724	4.519396551724137	0.0	0.0	8.91853448275862	0.0	0.0	-17.83706896551724	4.519396551724137	0.0	0.0	-5.945689655172413	0.0	0.0
1.1	0.0	0.0	0.0	0.0	0.9144827586206897	0.0	7.758620689655172	0.0	0.0	-15.517241379310343	2.5862068965517238	0.0	0.0	7.758620689655172	0.0	0.0	-15.517241379310343	2.5862068965517238	0.0	0.0	-5.1724137931034475	0.0	0.0
1.11	0.0	0.0	0.0	0.0	0.9229889655172414	0.0	6.5987068965517235	0.0	0.0	-13.197413793103447	0.6530172413793103	0.0	0.0	6.5987068965517235	0.0	0.0	-13.197413793103447	0.6530172413793103	0.0	0.0	-4.399137931034482	0.0	0.0
1.12	0.0	0.0	0.0	0.0	0.9313241379310345	0.0	5.462068965517241	0.0	0.0	-10.924137931034481	-1.2413793103448274	0.0	0.0	5.462068965517241	0.0	0.0	-10.924137931034481	-1.2413793103448274	0.0	0.0	-3.6413793103448273	0.0	0.0
1.13	0.0	0.0	0.0	0.0	0.939318275862069	0.0	4.37198275862069	0.0	0.0	-8.74396551724138	-3.0581896551724137	0.0	0.0	4.37198275862069	0.0	0.0	-8.74396551724138	-3.0581896551724137	0.0	0.0	-2.9146551724137932	0.0	0.0
1.14	0.0	0.0	0.0	0.0	0.9468000000000001	0.0	3.3517241379310345	0.0	0.0	-6.703448275862069	-4.758620689655173	0.0	0.0	3.3517241379310345	0.0	0.0	-6.703448275862069	-4.758620689655173	0.0	0.0	-2.2344827586206897	0.0	0.0
1.15	0.0	0.0	0.0	0.0	0.9535993103448276	0.0	2.424568965517241	0.0	0.0	-4.849137931034482	-6.303879310344827	0.0	0.0	2.424568965517241	0.0	0.0	-4.849137931034482	-6.303879310344827	0.0	0.0	-1.6163793103448274	0.0	0.0
1.16	0.0	0.0	0.0	0.0	0.9595448275862068	0.0	1.6137931034482755	0.0	0.0	-3.227586206896551	-7.655172413793102	0.0	0.0	1.6137931034482755	0.0	0.0	-3.227586206896551	-7.655172413793102	0.0	0.0	-1.0758620689655172	0.0	0.0
1.17	0.0	0.0	0.0	0.0	0.964466551724138	0.0	0.9426724137931034	0.0	0.0	-1.8853448275862068	-8.773706896551724	0.0	0.0	0.9426724137931034	0.0	0.0	-1.8853448275862068	-8.773706896551724	0.0	0.0	-0.6284482758620689	0.0	0.0
1.18	0.0	0.0	0.0	0.0	0.9681931034482758	0.0	0.43448275862068964	0.0	0.0	-0.8689655172413793	-9.620689655172413	0.0	0.0	0.43448275862068964	0.0	0.0	-0.8689655172413793	-9.620689655172413	0.0	0.0	-0.28965517241379307	0.0	0.0
1.19	0.0	0.0	0.0	0.0	0.9705544827586208	0.0	0.11249999999999999	0.0	0.0	-0.22499999999999998	-10.157327586206895	0.0	0.0	0.11249999999999999	0.0	0.0	-0.22499999999999998	-10.157327586206895	0.0	0.0	-0.075	0.0	0.0
1.2	0.0	0.0	0.0	0.0	0.9713793103448276	0.0	0.0	0.0	0.0	0.0	-10.344827586206895	0.0	0.0	0.0	0.0	0.0	0.0	-10.344827586206895	0.0	0.0	0.0	0.0	0.0
1.21	0.0	0.0	0.0	0.0	0.9724775862068966	0.0	0.08786724137931035	0.0	0.0	-0.1757344827586207	-10.344827586206895	0.0	0.0	0.08786724137931035	0.0	0.0	-0.1757344827586207	-10.344827586206895	0.0	0.0	0.0	0.0	0.0
1.22	0.0	0.0	0.0	0.0	0.9755682758620691	0.0	0.3351213793103448	0.0	0.0	-0.6702427586206896	-10.344827586206895	0.0	0.0	0.3351213793103448	0.0	0.0	-0.6702427586206896	-10.344827586206895	0.0	0.0	0.0	0.0	0.0
1.23	0.0	0.0	0.0	0.0	0.980344827586207	0.0	0.7172413793103448	0.0	0.0	-1.4344827586206896	-10.344827586206895	0.0	0.0	0.7172413793103448	0.0	0.0	-1.4344827586206896	-10.344827586206895	0.0	0.0	0.0	0.0	0.0
1.24	0.0	0.0	0.0	0.0	0.9865006896551725	0.0	1.2097062068965516	0.0	0.0	-2.4194124137931032	-10.344827586206895	0.0	0.0	1.2097062068965516	0.0	0.0	-2.4194124137931032	-10.344827586206895	0.0	0.0	0.0	0.0	0.0
1.25	0.0	0.0	0.0	0.0	0.9937293103448276	0.0	1.7879948275862065	0.0	0.0	-3.575989655172413	-10.344827586206895	0.0	0.0	1.7879948275862065	0.0	0.0	-3.575989655172413	-10.344827586206895	0.0	0.0	0.0	0.0	0.0
1.26	0.0	0.0	0.0	0.0	1.0017241379310344	0.0	2.4275862068965517	0.0	0.0	-4.855172413793103	-10.344827586206895	0.0	0.0	2.4275862068965517	0.0	0.0	-4.855172413793103	-10.344827586206895	0.0	0.0	0.0	0.0	0.0
1.27	0.0	0.0	0.0	0.0	1.0101789655172415	0.0	3.1039589655172413	0.0	0.0	-6.207918275862069	-10.344827586206895	0.0	0.0	3.1039589655172413	0.0	0.0	-6.207918275862069	-10.344827586206895	0.0	0.0	0.0	0.0	0.0
1.28	0.0	0.0	0.0	0.0	1.018786551724138	0.0	3.7925927586206893	0.0	0.0	-7.585185172413792	-10.344827586206895	0.0	0.0	3.7925927586206893	0.0	0.0	-7.585185172413792	-10.344827586206895	0.0	0.0	0.0	0.0	0.0
1.29	0.0	0.0	0.0	0.0	1.0272413793103448	0.0	4.468965517241379	0.0	0.0	-8.937931034482759	-10.344827586206895	0.0	0.0	4.468965517241379	0.0	0.0	-8.937931034482759	-10.344827586206895	0.0	0.0	0.0	0.0	0.0
1.3	0.0	0.0	0.0	0.0	1.0352362068965517	0.0	5.108556896551724	0.0	0.0	-10.217113793103447	-10.344827586206895	0.0	0.0	5.108556896551724	0.0	0.0	-10.217113793103447	-10.344827586206895	0.0	0.0	0.0	0.0	0.0
1.31	0.0	0.0	0.0	0.0	1.042464827586207	0.0	5.686845517241379	0.0	0.0	-11.373691034482759	-10.344827586206895	0.0	0.0	5.686845517241379	0.0	0.0	-11.373691034482759	-10.344827586206895	0.0	0.0	0.0	0.0	0.0
1.32	0.0	0.0	0.0	0.0	1.0486206896551724	0.0	6.179310344827586	0.0	0.0	-12.358620689655172	-10.344827586206895	0.0	0.0	6.179310344827586	0.0	0.0	-12.358620689655172	-10.344827586206895	0.0	0.0	0.0	0.0	0.0
1.33	0.0	0.0	0.0	0.0	1.0533972413793105	0.0	6.561430344827587	0.0	0.0	-13.122860689655173	-10.344827586206895	0.0	0.0	6.561430344827587	0.0	0.0	-13.122860689655173	-10.344827586206895	0.0	0.0	0.0	0.0	0.0
1.34	0.0	0.0	0.0	0.0	1.0564879310344828	0.0	6.80868448275862	0.0	0.0	-13.61736896551724	-10.344827586206895	0.0	0.0	6.80868448275862	0.0	0.0	-13.61736896551724	-10.344827586206895	0.0	0.0	0.0	0.0	0.0
1.35	0.0	0.0	0.0	0.0	1.0575862068965518	0.0	6.896551724137931	0.0	0.0	-13.793103448275861	-10.344827586206895	0.0	0.0	6.896551724137931	0.0	0.0	-13.793103448275861	-10.344827586206895	0.0	0.0	0.0	0.0	0.0
1.36	0.0	0.0	0.0	0.0	1.0564879310344828	0.0	6.80868448275862	0.0	0.0	-13.61736896551724	-10.344827586206895	0.0	0.0	6.80868448275862	0.0	0.0	-13.61736896551724	-10.344827586206895	0.0	0.0	0.0	0.0	0.0
1.37	0.0	0.0	0.0	0.0	1.0533972413793105	0.0	6.561430344827587	0.0	0.0	-13.122860689655173	-10.344827586206895	0.0	0.0	6.561430344827587	0.0	0.0	-13.122860689655173	-10.344827586206895	0.0	0.0	0.0	0.0	0.0
1.38	0.0	0.0	0.0	0.0	1.0486206896551724	0.0	6.179310344827586	0.0	0.0	-12.358620689655172	-10.344827586206895	0.0	0.0	6.179310344827586	0.0	0.0	-12.358620689655172	-10.344827586206895	0.0	0.0	0.0	0.0	0.0
1.39	0.0	0.0	0.0	0.0	1.042464827586207	0.0	5.686845517241379	0.0	0.0	-11.373691034482759	-10.344827586206895	0.0	0.0	5.686845517241379	0.0	0.0	-11.373691034482759	-10.344827586206895	0.0	0.0	0.0	0.0	0.0
1.4	0.0	0.0	0.0	0.0	1.0352362068965517	0.0	5.108556896551724	0.0	0.0	-10.217113793103447	-10.344827586206895	0.0	0.0	5.108556896551724	0.0	0.0	-10.217113793103447	-10.344827586206895	0.0	0.0	0.0	0.0	0.0
1.41	0.0	0.0	0.0	0.0	1.0272413793103448	0.0	4.468965517241379	0.0	0.0	-8.937931034482759	-10.344827586206895	0.0	0.0	4.468965517241379	0.0	0.0	-8.937931034482759	-10.344827586206895	0.0	0.0	0.0	0.0	0.0
1.42	0.0	0.0	0.0	0.0	1.018786551724138	0.0	3.7925927586206893	0.0	0.0	-7.585185172413792	-10.344827586206895	0.0	0.0	3.7925927586206893	0.0	0.0	-7.585185172413792	-10.344827586206895	0.0	0.0	0.0	0.0	0.0
1.43	0.0	0.0	0.0	0.0	1.0101789655172415	0.0	3.1039589655172413	0.0	0.0	-6.207918275862069	-10.344827586206895	0.0	0.0	3.1039589655172413	0.0	0.0	-6.207918275862069	-10.344827586206895	0.0	0.0	0.0	0.0	0.0
1.44	0.0	0.0	0.0	0.0	1.0017241379310344	0.0	2.4275862068965517	0.0	0.0	-4.855172413793103	-10.344827586206895	0.0	0.0	2.4275862068965517	0.0	0.0	-4.855172413793103	-10.344827586206895	0.0	0.0	0.0	0.0	0.0
1.45	0.0	0.0	0.0	0.0	0.9937293103448276	0.0	1.7879948275862065	0.0	0.0	-3.575989655172413	-10.344827586206895	0.0	0.0	1.7879948275862065	0.0	0.0	-3.575989655172413	-10.344827586206895	0.0	0.0	0.0	0.0	0.0
1.46	0.0	0.0	0.0	0.0	0.9865006896551725	0.0	1.2097062068965516	0.0	0.0	-2.4194124137931032	-10.344827586206895	0.0	0.0	1.2097062068965516	0.0	0.0	-2.4194124137931032	-10.344827586206895	0.0	0.0	0.0	0.0	0.0
1.47	0.0	0.0	0.0	0.0	0.980344827586207	0.0	0.7172413793103448	0.0	0.0	-1.4344827586206896	-10.344827586206895	0.0	0.0	0.7172413793103448	0.0	0.0	-1.4344827586206896	-10.344827586206895	0.0	0.0	0.0	0.0	0.0
1.48	0.0	0.0	0.0	0.0	0.9755682758620691	0.0	0.3351213793103448	0.0	0.0	-0.6702427586206896	-10.344827586206895	0.0	0.0	0.3351213793103448	0.0	0.0	-0.6702427586206896	-10.344827586206895	0.0	0.0	0.0	0.0	0.0
1.49	0.0	0.0	0.0	0.0	0.9724775862068966	0.0	0.08786724137931035	0.0	0.0	-0.1757344827586207	-10.344827586206895	0.0	0.0	0.08786724137931035	0.0	0.0	-0.1757344827586207	-10.344827586206895	0.0	0.0	0.0	0.0	0.0
1.5	0.0	0.0	0.0	0.0	0.9713793103448276	0.0	0.0	0.0	0.0	0.0	-10.344827586206895	0.0	0.0	0.0	0.0	0.0	0.0	-10.344827586206895	0.0	0.0	0.0	0.0	0.0
1.51	0.0	0.0	0.0	0.0	0.971008275862069	0.0	0.05057482758620689	0.0	0.0	-0.10114931034482758	-10.260536551724137	0.0	0.0	0.05057482758620689	0.0	0.0	-0.10114931034482758	-10.260536551724137	0.0	0.0	-0.03371655172413793	0.0	0.0
1.52	0.0	0.0	0.0	0.0	0.9699296551724138	0.0	0.1977010344827586	0.0	0.0	-0.3954024137931034	-10.015325517241378	0.0	0.0	0.1977010344827586	0.0	0.0	-0.3954024137931034	-10.015325517241378	0.0	0.0	-0.13180068965517241	0.0	0.0
1.53	0.0	0.0	0.0	0.0	0.9681931034482758	0.0	0.43448275862068964	0.0	0.0	-0.8689655172413793	-9.620689655172413	0.0	0.0	0.43448275862068964	0.0	0.0	-0.8689655172413793	-9.620689655172413	0.0	0.0	-0.28965517241379307	0.0	0.0
1.54	0.0	0.0	0.0	0.0	0.9658496551724138	0.0	0.7540231034482757	0.0	0.0	-1.5080458620689652	-9.088122758620688	0.0	0.0	0.7540231034482757	0.0	0.0	-1.5080458620689652	-9.088122758620688	0.0	0.0	-0.5026820689655171	0.0	0.0
1.55	0.0	0.0	0.0	0.0	0.9629503448275862	0.0	1.149425172413793	0.0	0.0	-2.2988506896551724	-8.429118620689655	0.0	0.0	1.149425172413793	0.0	0.0	-2.2988506896551724	-8.429118620689655	0.0	0.0	-0.7662834482758619	0.0	0.0
1.56	0.0	0.0	0.0	0.0	0.9595448275862068	0.0	1.6137931034482755	0.0	0.0	-3.227586206896551	-7.655172413793102	0.0	0.0	1.6137931034482755	0.0	0.0	-3.227586206896551	-7.655172413793102	0.0	0.0	-1.0758620689655172	0.0	0.0
1.57	0.0	0.0	0.0	0.0	0.9556841379310345	0.0	2.14023	0.0	0.0	-4.280459655172414	-6.777777931034483	0.0	0.0	2.14023	0.0	0.0	-4.280459655172414	-6.777777931034483	0.0	0.0	-1.4268199999999998	0.0	0.0
1.58	0.0	0.0	0.0	0.0	0.9514193103448276	0.0	2.7218389655172412	0.0	0.0	-5.4436782758620685	-5.8084289655172405	0.0	0.0	2.7218389655172412	0.0	0.0	-5.4436782758620685	-5.8084289655172405	0.0	0.0	-1.8145593103448276	0.0	0.0
1.59	0.0	0.0	0.0	0.0	0.9468000000000001	0.0	3.3517241379310345	0.0	0.0	-6.703448275862069	-4.758620689655173	0.0	0.0	3.3517241379310345	0.0	0.0	-6.703448275862069	-4.758620689655173	0.0	0.0	-2.2344827586206897	0.0	0.0
1.6	0.0	0.0	0.0	0.0	0.9418772413793104	0.0	4.022988620689655	0.0	0.0	-8.045976896551723	-3.6398468965517234	0.0	0.0	4.022988620689655	0.0	0.0	-8.045976896551723	-3.6398468965517234	0.0	0.0	-2.681992413793103	0.0	0.0
1.61	0.0	0.0	0.0	0.0	0.9367020689655172	0.0	4.728735517241379	0.0	0.0	-9.457471379310343	-2.4636013793103446	0.0	0.0	4.728735517241379	0.0	0.0	-9.457471379310343	-2.4636013793103446	0.0	0.0	-3.152490344827586	0.0	0.0
1.62	0.0	0.0	0.0	0.0	0.9313241379310345	0.0	5.462068965517241	0.0	0.0	-10.924137931034481	-1.2413793103448274	0.0	0.0	5.462068965517241	0.0	0.0	-10.924137931034481	-1.2413793103448274	0.0	0.0	-3.6413793103448273	0.0	0.0
1.63	0.0	0.0	0.0	0.0	0.9257944827586208	0.0	6.216092068965517	0.0	0.0	-12.432183793103448	0.015325517241379307	0.0	0.0	6.216092068965517	0.0	0.0	-12.432183793103448	0.015325517241379307	0.0	0.0	-4.144061379310345	0.0	0.0
1.64	0.0	0.0	0.0	0.0	0.9201641379310346	0.0	6.983907931034483	0.0	0.0	-13.96781620689655	1.2950193103448275	0.0	0.0	6.983907931034483	0.0	0.0	-13.96781620689655	1.2950193103448275	0.0	0.0	-4.655938620689654	0.0	0.0
1.65	0.0	0.0	0.0	0.0	0.9144827586206897	0.0	7.758620689655172	0.0	0.0	-15.517241379310343	2.5862068965517238	0.0	0.0	7.758620689655172	0.0	0.0	-15.517241379310343	2.5862068965517238	0.0	0.0	-5.1724137931034475	0.0	0.0
1.66	0.0	0.0	0.0	0.0	0.9088013793103449	0.0	8.533333448275862	0.0	0.0	-17.066666551724136	3.8773944827586204	0.0	0.0	8.533333448275862	0.0	0.0	-17.066666551724136	3.8773944827586204	0.0	0.0	-5.688888965517241	0.0	0.0
1.67	0.0	0.0	0.0	0.0	0.9031710344827586	0.0	9.301149310344826	0.0	0.0	-18.60229896551724	5.157088275862068	0.0	0.0	9.301149310344826	0.0	0.0	-18.60229896551724	5.157088275862068	0.0	0.0	-6.200766206896551	0.0	0.0
1.68	0.0	0.0	0.0	0.0	0.8976413793103448	0.0	10.055172413793102	0.0	0.0	-20.110344827586204	6.413793103448276	0.0	0.0	10.055172413793102	0.0	0.0	-20.110344827586204	6.413793103448276	0.0	0.0	-6.703448275862069	0.0	0.0
1.69	0.0	0.0	0.0	0.0	0.8922634482758621	0.0	10.788505862068964	0.0	0.0	-21.577011379310342	7.636015172413792	0.0	0.0	10.788505862068964	0.0	0.0	-21.577011379310342	7.636015172413792	0.0	0.0	-7.19233724137931	0.0	0.0
1.7	0.0	0.0	0.0	0.0	0.8870882758620691	0.0	11.49425275862069	0.0	0.0	-22.988505862068966	8.81226068965517	0.0	0.0	11.49425275862069	0.0	0.0	-22.988505862068966	8.81226068965517	0.0	0.0	-7.662835172413792	0.0	0.0
1.71	0.0	0.0	0.0	0.0	0.8821655172413794	0.0	12.165517241379309	0.0	0.0	-24.331034482758618	9.93103448275862	0.0	0.0	12.165517241379309	0.0	0.0	-24.331034482758618	9.93103448275862	0.0	0.0	-8.110344827586205	0.0	0.0
1.72	0.0	0.0	0.0	0.0	0.8775462068965517	0.0	12.795402413793102	0.0	0.0	-25.59080448275862	10.980842758620689	0.0	0.0	12.795402413793102	0.0	0.0	-25.59080448275862	10.980842758620689	0.0	0.0	-8.530268275862067	0.0	0.0
1.73	0.0	0.0	0.0	0.0	0.8732813793103449	0.0	13.377011379310343	0.0	0.0	-26.754023103448276	11.950191724137929	0.0	0.0	13.377011379310343	0.0	0.0	-26.754023103448276	11.950191724137929	0.0	0.0	-8.918007586206896	0.0	0.0
1.74	0.0	0.0	0.0	0.0	0.8694206896551725	0.0	13.903448275862068	0.0	0.0	-27.806896551724137	12.827586206896552	0.0	0.0	13.903448275862068	0.0	0.0	-27.806896551724137	12.827586206896552	0.0	0.0	-9.268965517241378	0.0	0.0
1.75	0.0	0.0	0.0	0.0	0.8660151724137931	0.0	14.36781620689655	0.0	0.0	-28.735632068965515	13.601532413793102	0.0	0.0	14.36781620689655	0.0	0.0	-28.735632068965515	13.601532413793102	0.0	0.0	-9.578544137931035	0.0	0.0
1.76	0.0	0.0	0.0	0.0	0.8631158620689656	0.0	14.763218275862068	0.0	0.0	-29.526436896551722	14.260536551724137	0.0	0.0	14.763218275862068	0.0	0.0	-29.526436896551722	14.260536551724137	0.0	0.0	-9.842145517241377	0.0	0.0
1.77	0.0	0.0	0.0	0.0	0.8607724137931034	0.0	15.082758620689654	0.0	0.0	-30.16551724137931	14.79310344827586	0.0	0.0	15.082758620689654	0.0	0.0	-30.16551724137931	14.79310344827586	0.0	0.0	-10.055172413793102	0.0	0.0
1.78	0.0	0.0	0.0	0.0	0.8590358620689655	0.0	15.319540344827585	0.0	0.0	-30.639080344827587	15.187739310344826	0.0	0.0	15.319540344827585	0.0	0.0	-30.639080344827587	15.187739310344826	0.0	0.0	-10.213026896551723	0.0	0.0
1.79	0.0	0.0	0.0	0.0	0.8579572413793104	0.0	15.466666551724137	0.0	0.0	-30.933333448275857	15.432950344827585	0.0	0.0	15.466666551724137	0.0	0.0	-30.933333448275857	15.432950344827585	0.0	0.0	-10.311111034482757	0.0	0.0
1.8	0.0	0.0	0.0	0.0	0.8575862068965517	0.0	15.517241379310343	0.0	0.0	-31.034482758620687	15.517241379310343	0.0	0.0	15.517241379310343	0.0	0.0	-31.034482758620687	15.517241379310343	0.0	0.0	-10.344827586206895	0.0	0.0
1.81	0.0	0.0	0.0	0.0	0.85763	0.0	15.507831379310343	0.0	0.0	-31.015663103448276	15.507831379310343	0.0	0.0	15.507831379310343	0.0	0.0	-31.015663103448276	15.507831379310343	0.0	0.0	-10.33855448275862	0.0	0.0
1.82	0.0	0.0	0.0	0.0	0.8577600000000001	0.0	15.479963793103446	0.0	0.0	-30.95992758620689	15.479963793103446	0.0	0.0	15.479963793103446	0.0	0.0	-30.95992758620689	15.479963793103446	0.0	0.0	-10.319975862068965	0.0	0.0
1.83	0.0	0.0	0.0	0.0	0.8579737931034483	0.0	15.434181034482757	0.0	0.0	-30.868362413793104	15.434181034482757	0.0	0.0	15.434181034482757	0.0	0.0	-30.868362413793104	15.434181034482757	0.0	0.0	-10.289454137931035	0.0	0.0
1.84	0.0	0.0	0.0	0.0	0.8582686206896553	0.0	15.371026551724137	0.0	0.0	-30.742052758620687	15.371026551724137	0.0	0.0	15.371026551724137	0.0	0.0	-30.742052758620687	15.371026551724137	0.0	0.0	-10.247351034482758	0.0	0.0
1.85	0.0	0.0	0.0	0.0	0.858641724137931	0.0	15.291042413793102	0.0	0.0	-30.58208517241379	15.291042413793102	0.0	0.0	15.291042413793102	0.0	0.0	-30.58208517241379	15.291042413793102	0.0	0.0	-10.194028275862067	0.0	0.0
1.86	0.0	0.0	0.0	0.0	0.8590910344827587	0.0	15.194772413793102	0.0	0.0	-30.389544482758616	15.194772413793102	0.0	0.0	15.194772413793102	0.0	0.0	-30.389544482758616	15.194772413793102	0.0	0.0	-10.129848275862068	0.0	0.0
1.87	0.0	0.0	0.0	0.0	0.8596137931034483	0.0	15.082758620689654	0.0	0.0	-30.16551724137931	15.082758620689654	0.0	0.0	15.082758620689654	0.0	0.0	-30.16551724137931	15.082758620689654	0.0	0.0	-10.055172413793102	0.0	0.0
1.88	0.0	0.0	0.0	0.0	0.8602075862068965	0.0	14.95554448275862	0.0	0.0	-29.911088620689654	14.95554448275862	0.0	0.0	14.95554448275862	0.0	0.0	-29.911088620689654	14.95554448275862	0.0	0.0	-9.97036275862069	0.0	0.0
1.89	0.0	0.0	0.0	0.0	0.8608696551724139	0.0	14.813672413793103	0.0	0.0	-29.627344827586207	14.813672413793103	0.0	0.0	14.813672413793103	0.0	0.0	-29.627344827586207	14.813672413793103	0.0	0.0	-9.87578172413793	0.0	0.0
1.9	0.0	0.0	0.0	0.0	0.8615975862068965	0.0	14.657685862068965	0.0	0.0	-29.315371379310342	14.657685862068965	0.0	0.0	14.657685862068965	0.0	0.0	-29.315371379310342	14.657685862068965	0.0	0.0	-9.771790344827584	0.0	0.0
1.91	0.0	0.0	0.0	0.0	0.8623886206896552	0.0	14.488127241379308	0.0	0.0	-28.976254137931033	14.488127241379308	0.0	0.0	14.488127241379308	0.0	0.0	-28.976254137931033	14.488127241379308	0.0	0.0	-9.658751379310344	0.0	0.0
1.92	0.0	0.0	0.0	0.0	0.8632406896551724	0.0	14.305539310344827	0.0	0.0	-28.611078620689653	14.305539310344827	0.0	0.0	14.305539310344827	0.0	0.0	-28.611078620689653	14.305539310344827	0.0	0.0	-9.53702620689655	0.0	0.0
1.93	0.0	0.0	0.0	0.0	0.8641510344827587	0.0	14.110465517241378	0.0	0.0	-28.220931034482756	14.110465517241378	0.0	0.0	14.110465517241378	0.0	0.0	-28.220931034482756	14.110465517241378	0.0	0.0	-9.406976896551724	0.0	0.0
1.94	0.0	0.0	0.0	0.0	0.8651172413793105	0.0	13.903448275862068	0.0	0.0	-27.806896551724137	13.903448275862068	0.0	0.0	13.903448275862068	0.0	0.0	-27.806896551724137	13.903448275862068	0.0	0.0	-9.268965517241378	0.0	0.0
1.95	0.0	0.0	0.0	0.0	0.866136551724138	0.0	13.68503068965517	0.0	0.0	-27.37006137931034	13.68503068965517	0.0	0.0	13.68503068965517	0.0	0.0	-27.37006137931034	13.68503068965517	0.0	0.0	-9.123353793103448	0.0	0.0
1.96	0.0	0.0	0.0	0.0	0.867206551724138	0.0	13.455755517241377	0.0	0.0	-26.911511034482754	13.455755517241377	0.0	0.0	13.455755517241377	0.0	0.0	-26.911511034482754	13.455755517241377	0.0	0.0	-8.970503793103447	0.0	0.0
1.97	0.0	0.0	0.0	0.0	0.8683244827586207	0.0	13.216165517241379	0.0	0.0	-26.432331379310344	13.216165517241379	0.0	0.0	13.216165517241379	0.0	0.0	-26.432331379310344	13.216165517241379	0.0	0.0	-8.81077724137931	0.0	0.0
1.98	0.0	0.0	0.0	0.0	0.869488275862069	0.0	12.966804137931033	0.0	0.0	-25.933608275862067	12.966804137931033	0.0	0.0	12.966804137931033	0.0	0.0	-25.933608275862067	12.966804137931033	0.0	0.0	-8.64453620689655	0.0	0.0
1.99	0.0	0.0	0.0	0.0	0.8706951724137931	0.0	12.708213448275862	0.0	0.0	-25.416426896551723	12.708213448275862	0.0	0.0	12.708213448275862	0.0	0.0	-25.416426896551723	12.708213448275862	0.0	0.0	-8.472142413793103	0.0	0.0
2.0	0.0	0.0	0.0	0.0	0.8719424137931034	0.0	12.440936896551722	0.0	0.0	-24.881873793103445	12.440936896551722	0.0	0.0	12.440936896551722	0.0	0.0	-24.881873793103445	12.440936896551722	0.0	0.0	-8.293957931034482	0.0	0.0
2.01	0.0	0.0	0.0	0.0	0.8732275862068966	0.0	12.165517241379309	0.0	0.0	-24.331034482758618	12.165517241379309	0.0	0.0	12.165517241379309	0.0	0.0	-24.331034482758618	12.165517241379309	0.0	0.0	-8.110344827586205	0.0	0.0
2.02	0.0	0.0	0.0	0.0	0.8745482758620691	0.0	11.88249724137931	0.0	0.0	-23.76499448275862	11.88249724137931	0.0	0.0	11.88249724137931	0.0	0.0	-23.76499448275862	11.88249724137931	0.0	0.0	-7.9216648275862065	0.0	0.0
2.03	0.0	0.0	0.0	0.0	0.8759020689655173	0.0	11.592419655172414	0.0	0.0	-23.18483965517241	11.592419655172414	0.0	0.0	11.592419655172414	0.0	0.0	-23.18483965517241	11.592419655172414	0.0	0.0	-7.72828	0.0	0.0
2.04	0.0	0.0	0.0	0.0	0.8772862068965518	0.0	11.29582793103448	0.0	0.0	-22.59165586206896	11.29582793103448	0.0	0.0	11.29582793103448	0.0	0.0	-22.59165586206896	11.29582793103448	0.0	0.0	-7.530552068965517	0.0	0.0
2.05	0.0	0.0	0.0	0.0	0.8786979310344828	0.0	10.993264137931034	0.0	0.0	-21.986528620689654	10.993264137931034	0.0	0.0	10.993264137931034	0.0	0.0	-21.986528620689654	10.993264137931034	0.0	0.0	-7.32884275862069	0.0	0.0
2.06	0.0	0.0	0.0	0.0	0.8801355172413794	0.0	10.685272068965517	0.0	0.0	-21.370543793103444	10.685272068965517	0.0	0.0	10.685272068965517	0.0	0.0	-21.370543793103444	10.685272068965517	0.0	0.0	-7.12351448275862	0.0	0.0
2.07	0.0	0.0	0.0	0.0	0.8815955172413793	0.0	10.372393793103447	0.0	0.0	-20.74478724137931	10.372393793103447	0.0	0.0	10.372393793103447	0.0	0.0	-20.74478724137931	10.372393793103447	0.0	0.0	-6.914928965517241	0.0	0.0
2.08	0.0	0.0	0.0	0.0	0.8830758620689655	0.0	10.055172413793102	0.0	0.0	-20.110344827586204	10.055172413793102	0.0	0.0	10.055172413793102	0.0	0.0	-20.110344827586204	10.055172413793102	0.0	0.0	-6.703448275862069	0.0	0.0
2.09	0.0	0.0	0.0	0.0	0.8845737931034483	0.0	9.734151034482757	0.0	0.0	-19.468302068965514	9.734151034482757	0.0	0.0	9.734151034482757	0.0	0.0	-19.468302068965514	9.734151034482757	0.0	0.0	-6.489434137931033	0.0	0.0
2.1	0.0	0.0	0.0	0.0	0.8860872413793104	0.0	9.409872413793103	0.0	0.0	-18.81974448275862	9.409872413793103	0.0	0.0	9.409872413793103	0.0	0.0	-18.81974448275862	9.409872413793103	0.0	0.0	-6.273248275862068	0.0	0.0
2.11	0.0	0.0	0.0	0.0	0.8876131034482759	0.0	9.082879310344827	0.0	0.0	-18.165758620689655	9.082879310344827	0.0	0.0	9.082879310344827	0.0	0.0	-18.165758620689655	9.082879310344827	0.0	0.0	-6.055252758620689	0.0	0.0
2.12	0.0	0.0	0.0	0.0	0.8891493103448276	0.0	8.753714827586206	0.0	0.0	-17.507429310344826	8.753714827586206	0.0	0.0	8.753714827586206	0.0	0.0	-17.507429310344826	8.753714827586206	0.0	0.0	-5.8358096551724135	0.0	0.0
2.13	0.0	0.0	0.0	0.0	0.8906931034482759	0.0	8.422921379310344	0.0	0.0	-16.845843103448274	8.422921379310344	0.0	0.0	8.422921379310344	0.0	0.0	-16.845843103448274	8.422921379310344	0.0	0.0	-5.6152810344827575	0.0	0.0
2.14	0.0	0.0	0.0	0.0	0.8922417241379311	0.0	8.091042413793103	0.0	0.0	-16.182085172413792	8.091042413793103	0.0	0.0	8.091042413793103	0.0	0.0	-16.182085172413792	8.091042413793103	0.0	0.0	-5.394028275862069	0.0	0.0
2.15	0.0	0.0	0.0	0.0	0.8937931034482759	0.0	7.758620689655172	0.0	0.0	-15.517241379310343	7.758620689655172	0.0	0.0	7.758620689655172	0.0	0.0	-15.517241379310343	7.758620689655172	0.0	0.0	-5.1724137931034475	0.0	0.0
2.16	0.0	0.0	0.0	0.0	0.8953444827586208	0.0	7.426198965517241	0.0	0.0	-14.852397586206896	7.426198965517241	0.0	0.0	7.426198965517241	0.0	0.0	-14.852397586206896	7.426198965517241	0.0	0.0	-4.950799310344827	0.0	0.0
2.17	0.0	0.0	0.0	0.0	0.8968931034482759	0.0	7.094319999999999	0.0	0.0	-14.188639655172413	7.094319999999999	0.0	0.0	7.094319999999999	0.0	0.0	-14.188639655172413	7.094319999999999	0.0	0.0	-4.7295465517241375	0.0	0.0
2.18	0.0	0.0	0.0	0.0	0.8984368965517242	0.0	6.763526551724137	0.0	0.0	-13.52705344827586	6.763526551724137	0.0	0.0	6.763526551724137	0.0	0.0	-13.52705344827586	6.763526551724137	0.0	0.0	-4.5090179310344825	0.0	0.0
2.19	0.0	0.0	0.0	0.0	0.8999731034482759	0.0	6.434362068965516	0.0	0.0	-12.868724137931032	6.434362068965516	0.0	0.0	6.434362068965516	0.0	0.0	-12.868724137931032	6.434362068965516	0.0	0.0	-4.289574827586207	0.0	0.0
2.2	0.0	0.0	0.0	0.0	0.9014989655172414	0.0	6.1073689655172405	0.0	0.0	-12.214738275862068	6.1073689655172405	0.0	0.0	6.1073689655172405	0.0	0.0	-12.214738275862068	6.1073689655172405	0.0	0.0	-4.071579310344827	0.0	0.0
2.21	0.0	0.0	0.0	0.0	0.9030124137931035	0.0	5.783090344827586	0.0	0.0	-11.566180689655171	5.783090344827586	0.0	0.0	5.783090344827586	0.0	0.0	-11.566180689655171	5.783090344827586	0.0	0.0	-3.8553934482758616	0.0	0.0
2.22	0.0	0.0	0.0	0.0	0.9045103448275862	0.0	5.462068965517241	0.0	0.0	-10.924137931034481	5.462068965517241	0.0	0.0	5.462068965517241	0.0	0.0	-10.924137931034481	5.462068965517241	0.0	0.0	-3.6413793103448273	0.0	0.0
2.23	0.0	0.0	0.0	0.0	0.9059906896551725	0.0	5.144847586206896	0.0	0.0	-10.289695517241379	5.144847586206896	0.0	0.0	5.144847586206896	0.0	0.0	-10.289695517241379	5.144847586206896	0.0	0.0	-3.429898620689655	0.0	0.0
2.24	0.0	0.0	0.0	0.0	0.9074506896551725	0.0	4.831969310344827	0.0	0.0	-9.663938965517241	4.831969310344827	0.0	0.0	4.831969310344827	0.0	0.0	-9.663938965517241	4.831969310344827	0.0	0.0	-3.2213131034482756	0.0	0.0
2.25	0.0	0.0	0.0	0.0	0.908888275862069	0.0	4.52397724137931	0.0	0.0	-9.047954137931033	4.52397724137931	0.0	0.0	4.52397724137931	0.0	0.0	-9.047954137931033	4.52397724137931	0.0	0.0	-3.0159848275862067	0.0	0.0
2.26	0.0	0.0	0.0	0.0	0.9103	0.0	4.221413448275862	0.0	0.0	-8.442826896551724	4.221413448275862	0.0	0.0	4.221413448275862	0.0	0.0	-8.442826896551724	4.221413448275862	0.0	0.0	-2.814275517241379	0.0	0.0
2.27	0.0	0.0	0.0	0.0	0.9116841379310345	0.0	3.9248217241379306	0.0	0.0	-7.849643103448274	3.9248217241379306	0.0	0.0	3.9248217241379306	0.0	0.0	-7.849643103448274	3.9248217241379306	0.0	0.0	-2.6165475862068965	0.0	0.0
2.28	0.0	0.0	0.0	0.0	0.9130379310344828	0.0	3.634744137931034	0.0	0.0	-7.269488275862068	3.634744137931034	0.0	0.0	3.634744137931034	0.0	0.0	-7.269488275862068	3.634744137931034	0.0	0.0	-2.4231627586206894	0.0	0.0
2.29	0.0	0.0	0.0	0.0	0.9143586206896552	0.0	3.3517241379310345	0.0	0.0	-6.703448275862069	3.3517241379310345	0.0	0.0	3.3517241379310345	0.0	0.0	-6.703448275862069	3.3517241379310345	0.0	0.0	-2.2344827586206897	0.0	0.0
2.3	0.0	0.0	0.0	0.0	0.9156437931034483	0.0	3.0763044827586206	0.0	0.0	-6.152608965517241	3.0763044827586206	0.0	0.0	3.0763044827586206	0.0	0.0	-6.152608965517241	3.0763044827586206	0.0	0.0	-2.0508696551724137	0.0	0.0
2.31	0.0	0.0	0.0	0.0	0.9168910344827587	0.0	2.809027931034483	0.0	0.0	-5.618055862068966	2.809027931034483	0.0	0.0	2.809027931034483	0.0	0.0	-5.618055862068966	2.809027931034483	0.0	0.0	-1.8726851724137927	0.0	0.0
2.32	0.0	0.0	0.0	0.0	0.9180979310344828	0.0	2.55043724137931	0.0	0.0	-5.10087448275862	2.55043724137931	0.0	0.0	2.55043724137931	0.0	0.0	-5.10087448275862	2.55043724137931	0.0	0.0	-1.7002913793103445	0.0	0.0
2.33	0.0	0.0	0.0	0.0	0.9192617241379311	0.0	2.301075862068965	0.0	0.0	-4.602151379310345	2.301075862068965	0.0	0.0	2.301075862068965	0.0	0.0	-4.602151379310345	2.301075862068965	0.0	0.0	-1.534050344827586	0.0	0.0
2.34	0.0	0.0	0.0	0.0	0.9203796551724138	0.0	2.0614858620689653	0.0	0.0	-4.122971724137931	2.0614858620689653	0.0	0.0	2.0614858620689653	0.0	0.0	-4.122971724137931	2.0614858620689653	0.0	0.0	-1.3743237931034482	0.0	0.0
2.35	0.0	0.0	0.0	0.0	0.9214496551724138	0.0	1.8322106896551724	0.0	0.0	-3.664421379310345	1.8322106896551724	0.0	0.0	1.8322106896551724	0.0	0.0	-3.664421379310345	1.8322106896551724	0.0	0.0	-1.221473793103448	0.0	0.0
2.36	0.0	0.0	0.0	0.0	0.9224689655172414	0.0	1.6137931034482755	0.0	0.0	-3.227586206896551	1.6137931034482755	0.0	0.0	1.6137931034482755	0.0	0.0	-3.227586206896551	1.6137931034482755	0.0	0.0	-1.0758620689655172	0.0	0.0
2.37	0.0	0.0	0.0	0.0	0.9234351724137931	0.0	1.4067758620689654	0.0	0.0	-2.813551724137931	1.4067758620689654	0.0	0.0	1.4067758620689654	0.0	0.0	-2.813551724137931	1.4067758620689654	0.0	0.0	-0.9378506896551724	0.0	0.0
2.38	0.0	0.0	0.0	0.0	0.9243455172413794	0.0	1.2117020689655171	0.0	0.0	-2.4234041379310343	1.2117020689655171	0.0	0.0	1.2117020689655171	0.0	0.0	-2.4234041379310343	1.2117020689655171	0.0	0.0	-0.8078013793103447	0.0	0.0
2.39	0.0	0.0	0.0	0.0	0.9251975862068966	0.0	1.0291141379310342	0.0	0.0	-2.058228620689655	1.0291141379310342	0.0	0.0	1.0291141379310342	0.0	0.0	-2.058228620689655	1.0291141379310342	0.0	0.0	-0.6860762068965517	0.0	0.0
2.4	0.0	0.0	0.0	0.0	0.9259886206896553	0.0	0.8595555172413792	0.0	0.0	-1.7191113793103447	0.8595555172413792	0.0	0.0	0.8595555172413792	0.0	0.0	-1.7191113793103447	0.8595555172413792	0.0	0.0	-0.5730372413793102	0.0	0.0
2.41	0.0	0.0	0.0	0.0	0.9267165517241379	0.0	0.7035689655172414	0.0	0.0	-1.4071379310344827	0.7035689655172414	0.0	0.0	0.7035689655172414	0.0	0.0	-1.4071379310344827	0.7035689655172414	0.0	0.0	-0.4690458620689655	0.0	0.0
2.42	0.0	0.0	0.0	0.0	0.9273786206896553	0.0	0.5616968965517241	0.0	0.0	-1.1233941379310344	0.5616968965517241	0.0	0.0	0.5616968965517241	0.0	0.0	-1.1233941379310344	0.5616968965517241	0.0	0.0	-0.3744648275862068	0.0	0.0
2.43	0.0	0.0	0.0	0.0	0.9279724137931035	0.0	0.43448275862068964	0.0	0.0	-0.8689655172413793	0.43448275862068964	0.0	0.0	0.43448275862068964	0.0	0.0	-0.8689655172413793	0.43448275862068964	0.0	0.0	-0.28965517241379307	0.0	0.0
2.44	0.0	0.0	0.0	0.0	0.9284951724137931	0.0	0.32246896551724136	0.0	0.0	-0.6449382758620689	0.32246896551724136	0.0	0.0	0.32246896551724136	0.0	0.0	-0.6449382758620689	0.32246896551724136	0.0	0.0	-0.21497931034482756	0.0	0.0
2.45	0.0	0.0	0.0	0.0	0.9289444827586207	0.0	0.22619896551724136	0.0	0.0	-0.45239758620689646	0.22619896551724136	0.0	0.0	0.22619896551724136	0.0	0.0	-0.45239758620689646	0.22619896551724136	0.0	0.0	-0.15079931034482758	0.0	0.0
2.46	0.0	0.0	0.0	0.0	0.9293175862068965	0.0	0.14621482758620688	0.0	0.0	-0.29242999999999997	0.14621482758620688	0.0	0.0	0.14621482758620688	0.0	0.0	-0.29242999999999997	0.14621482758620688	0.0	0.0	-0.09747655172413792	0.0	0.0
2.47	0.0	0.0	0.0	0.0	0.9296124137931034	0.0	0.0830603448275862	0.0	0.0	-0.1661203448275862	0.0830603448275862	0.0	0.0	0.0830603448275862	0.0	0.0	-0.1661203448275862	0.0830603448275862	0.0	0.0	-0.05537344827586207	0.0	0.0
2.48	0.0	0.0	0.0	0.0	0.9298262068965517	0.0	0.03727758620689655	0.0	0.0	-0.0745551724137931	0.03727758620689655	0.0	0.0	0.03727758620689655	0.0	0.0	-0.0745551724137931	0.03727758620689655	0.0	0.0	-0.02485172413793103	0.0	0.0
2.49	0.0	0.0	0.0	0.0	0.9299562068965518	0.0	0.00941	0.0	0.0	-0.018819655172413793	0.00941	0.0	0.0	0.00941	0.0	0.0	-0.018819655172413793	0.00941	0.0	0.0	-0.006273103448275861	0.0	0.0
2.5	0.0	0.0	0.0	0.0	0.93	0.0	0.0	0.0	0.0	0.0	0.0	0.0	0.0	0.0	0.0	0.0	0.0	0.0	0.0	0.0	0.0	0.0	0.0
